Unnamed: 0,Name,Address,GM Name,Country,City,LinkedIn URL
0,Mövenpick Resort Khao Yai,"Nakornratch, T Wangsai A, Pak Chong District, Nakhon Ratchasima 30130, Thailand",No data available.,Thailand,Nakhon Ratchasima 30130,
1,Pullman Khon Kaen Raja Orchid,"9, 9 Prachasumran Road, Nai Mueang, Muang, Khon Kaen 40000, Thailand",Stanley Chan,Thailand,Khon Kaen 40000,https://th.linkedin.com/in/stanley-chan-39a14710
2,Novotel Bangkok Future Park Rangsit,"114 Phahonyothin Rd, Prachathipat, Thanyaburi District, Pathum Thani 12130, Thailand",,Thailand,Pathum Thani 12130,
3,ibis Bangkok IMPACT,"93 Popular Road, Banmai Subdistrict, NONTHABURI, 11120, Thailand",No data available.,Thailand,11120,
4,Novotel Bangkok Impact,"94 Popular Rd, Tambon Ban Mai, Pak Kret District, Nonthaburi 11120, Thailand",,Thailand,Nonthaburi 11120,
5,ibis Styles Bangkok Ratchada,"212 Ratchadaphisek Rd, Khwaeng Huai Khwang, Khet Huai Khwang, Bangkok 10310, Thailand",No information available.,Thailand,Bangkok 10310,
6,Swissôtel Bangkok Ratchada,"204 Ratchadaphisek Rd, Huai Khwang, Khet Huai Khwang, Bangkok 10320, Thailand",No data available.,Thailand,Bangkok 10320,
7,Pullman Bangkok King Power,"8, 2 Rang Nam Alley, Khwaeng Thanon Phaya Thai, Khet Ratchathewi, Bangkok 10400, Thailand",Luc Bollen.,Thailand,Bangkok 10400,https://hk.linkedin.com/in/ljjbollen
8,Mercure Bangkok Makkasan,"1599 Kamphaeng Phet 7 Rd, Khwaeng Makkasan, Khet Ratchathewi, Bangkok 10400, Thailand",,Thailand,Bangkok 10400,
9,Grand Mercure Bangkok Atrium,"1880 New Petchaburi Rd, Bangkapi, Khet Huai Khwang, Bangkok 10310, Thailand",Orawan Vicharnarong,Thailand,Bangkok 10310,https://th.linkedin.com/in/orawan-vicharnarong-8550a9123
10,Mövenpick Resort Khao Yai,"Nakornratch, T Wangsai A, Pak Chong District, Nakhon Ratchasima 30130, Thailand",No data available.,Thailand,Nakhon Ratchasima 30130,
11,Pullman Khon Kaen Raja Orchid,"9, 9 Prachasumran Road, Nai Mueang, Muang, Khon Kaen 40000, Thailand",Stanley Chan,Thailand,Khon Kaen 40000,https://th.linkedin.com/in/stanley-chan-39a14710
12,Novotel Bangkok Future Park Rangsit,"114 Phahonyothin Rd, Prachathipat, Thanyaburi District, Pathum Thani 12130, Thailand",,Thailand,Pathum Thani 12130,
13,ibis Bangkok IMPACT,"93 Popular Road, Banmai Subdistrict, NONTHABURI, 11120, Thailand",Vinod Singh Negi.,Thailand,11120,https://th.linkedin.com/in/vinod-singh-negi-1a475024
14,Novotel Bangkok Impact,"94 Popular Rd, Tambon Ban Mai, Pak Kret District, Nonthaburi 11120, Thailand",Norman Cross,Thailand,Nonthaburi 11120,https://sg.linkedin.com/in/norman-cross-3617368
15,ibis Styles Bangkok Ratchada,"212 Ratchadaphisek Rd, Khwaeng Huai Khwang, Khet Huai Khwang, Bangkok 10310, Thailand",,Thailand,Bangkok 10310,
16,Swissôtel Bangkok Ratchada,"204 Ratchadaphisek Rd, Huai Khwang, Khet Huai Khwang, Bangkok 10320, Thailand",,Thailand,Bangkok 10320,
17,Pullman Bangkok King Power,"8, 2 Rang Nam Alley, Khwaeng Thanon Phaya Thai, Khet Ratchathewi, Bangkok 10400, Thailand",Luc Bollen,Thailand,Bangkok 10400,https://hk.linkedin.com/in/ljjbollen
18,Mercure Bangkok Makkasan,"1599 Kamphaeng Phet 7 Rd, Khwaeng Makkasan, Khet Ratchathewi, Bangkok 10400, Thailand",No information is provided about the General Manager of Mercure Bangkok Makkasan in the search results.,Thailand,Bangkok 10400,https://th.linkedin.com/in/pornthip-kulphatnirund-040a12212
19,Grand Mercure Bangkok Atrium,"1880 New Petchaburi Rd, Bangkapi, Khet Huai Khwang, Bangkok 10310, Thailand",Roger Parnow,Thailand,Bangkok 10310,https://th.linkedin.com/in/roger-parnow-5a372185
20,Novotel Bangkok Platinum Pratunam,"220 Phetchaburi Rd, Khwaeng Thanon Phetchaburi, Khet Ratchathewi, Bangkok 10400, Thailand",,Thailand,Bangkok 10400,
21,Mövenpick BDMS Wellness Resort Bangkok,"2 Witthayu Rd, Lumphini, Pathum Wan, Bangkok 10330, Thailand",No data available.,Thailand,Bangkok 10330,
22,VIE Hotel Bangkok - MGallery,"117 39, 40 Phaya Thai Rd, Khwaeng Thanon Phetchaburi, Khet Ratchathewi, Bangkok 10400, Thailand",Nicolas Peth,Thailand,Bangkok 10400,https://th.linkedin.com/in/nicpeth
23,Mercure Bangkok Sukhumvit 11,"18 Soi Sukhumvit 11, Khwaeng Khlong Toei Nuea, Watthana, Bangkok 10110, Thailand",Nikolay Stoyanov,Thailand,Bangkok 10110,https://bg.linkedin.com/in/nikolay-stoyanov-4301172
24,Mövenpick Hotel Sukhumvit 15 Bangkok,"47 Sukhumvit 15, Khwaeng Khlong Toei Nuea, Watthana, Bangkok 10110, Thailand",Jay Sudhakaran,Thailand,Bangkok 10110,https://th.linkedin.com/in/jay-sudhakaran-713a8519
25,Grand Mercure Bangkok Asoke Residence,"50, 5 Sukhumvit 19 Alley, Khwaeng Khlong Toei Nuea, Watthana, Bangkok 10110, Thailand",Boima Harris,Thailand,Bangkok 10110,https://th.linkedin.com/in/boima-harris-92192870
26,Novotel Bangkok Ploenchit Sukhumvit,"566 Phloen Chit Rd, Khwaeng Lumphini, Pathum Wan, Bangkok 10330, Thailand",,Thailand,Bangkok 10330,
27,Mercure Bangkok Siam,"927 Rama I Rd, Wangmai, Pathum Wan, Bangkok 10330, Thailand",Orawan Vicharnarong,Thailand,Bangkok 10330,https://th.linkedin.com/in/orawan-vicharnarong-8550a9123
28,ibis Bangkok Siam,"927 Rama I Rd, Wangmai, Pathum Wan, Bangkok 10330, Thailand",Nikolay Stoyanov,Thailand,Bangkok 10330,https://bg.linkedin.com/in/nikolay-stoyanov-4301172
29,Novotel Bangkok on Siam Square,"392, 44 Siam Square Soi 6, Khwaeng Pathum Wan, Pathum Wan, Bangkok 10330, Thailand",Orawan Vicharnarong,Thailand,Bangkok 10330,https://th.linkedin.com/in/orawan-vicharnarong-8550a9123
30,Mövenpick Resort Khao Yai,"Nakornratch, T Wangsai A, Pak Chong District, Nakhon Ratchasima 30130, Thailand",,Thailand,Nakhon Ratchasima 30130,
31,Pullman Khon Kaen Raja Orchid,"9, 9 Prachasumran Road, Nai Mueang, Muang, Khon Kaen 40000, Thailand",Stanley Chan,Thailand,Khon Kaen 40000,https://th.linkedin.com/in/stanley-chan-39a14710
32,Novotel Bangkok Future Park Rangsit,"114 Phahonyothin Rd, Prachathipat, Thanyaburi District, Pathum Thani 12130, Thailand",No data available.,Thailand,Pathum Thani 12130,
33,ibis Bangkok IMPACT,"93 Popular Road, Banmai Subdistrict, NONTHABURI, 11120, Thailand",Patcharaporn Rattanasaenghirun,Thailand,11120,https://th.linkedin.com/in/patcharaporn-rattanasaenghirun-9aa826184
34,Novotel Bangkok Impact,"94 Popular Rd, Tambon Ban Mai, Pak Kret District, Nonthaburi 11120, Thailand",,Thailand,Nonthaburi 11120,
35,ibis Styles Bangkok Ratchada,"212 Ratchadaphisek Rd, Khwaeng Huai Khwang, Khet Huai Khwang, Bangkok 10310, Thailand",,Thailand,Bangkok 10310,
36,Swissôtel Bangkok Ratchada,"204 Ratchadaphisek Rd, Huai Khwang, Khet Huai Khwang, Bangkok 10320, Thailand",No information is provided about the General Manager of Swissôtel Bangkok Ratchada in the search results.,Thailand,Bangkok 10320,https://th.linkedin.com/in/bruno-rotschaedl-hotelier
37,Pullman Bangkok King Power,"8, 2 Rang Nam Alley, Khwaeng Thanon Phaya Thai, Khet Ratchathewi, Bangkok 10400, Thailand",Luc Bollen.,Thailand,Bangkok 10400,https://hk.linkedin.com/in/ljjbollen
38,Mercure Bangkok Makkasan,"1599 Kamphaeng Phet 7 Rd, Khwaeng Makkasan, Khet Ratchathewi, Bangkok 10400, Thailand",No information is provided about the General Manager of Mercure Bangkok Makkasan in the search results.,Thailand,Bangkok 10400,https://th.linkedin.com/in/pornthip-kulphatnirund-040a12212
39,Grand Mercure Bangkok Atrium,"1880 New Petchaburi Rd, Bangkapi, Khet Huai Khwang, Bangkok 10310, Thailand",Roger Parnow,Thailand,Bangkok 10310,https://th.linkedin.com/in/roger-parnow-5a372185
40,Novotel Bangkok Platinum Pratunam,"220 Phetchaburi Rd, Khwaeng Thanon Phetchaburi, Khet Ratchathewi, Bangkok 10400, Thailand",No data available.,Thailand,Bangkok 10400,
41,Mövenpick BDMS Wellness Resort Bangkok,"2 Witthayu Rd, Lumphini, Pathum Wan, Bangkok 10330, Thailand",Tarin Luechaijam,Thailand,Bangkok 10330,https://th.linkedin.com/in/tarin-luechaikam-123b51293
42,VIE Hotel Bangkok - MGallery,"117 39, 40 Phaya Thai Rd, Khwaeng Thanon Phetchaburi, Khet Ratchathewi, Bangkok 10400, Thailand",Nicolas Peth,Thailand,Bangkok 10400,https://th.linkedin.com/in/nicpeth
43,Mercure Bangkok Sukhumvit 11,"18 Soi Sukhumvit 11, Khwaeng Khlong Toei Nuea, Watthana, Bangkok 10110, Thailand",Boima Harris,Thailand,Bangkok 10110,https://th.linkedin.com/in/boima-harris-92192870
44,Mövenpick Hotel Sukhumvit 15 Bangkok,"47 Sukhumvit 15, Khwaeng Khlong Toei Nuea, Watthana, Bangkok 10110, Thailand",Jay Sudhakaran,Thailand,Bangkok 10110,https://th.linkedin.com/in/jay-sudhakaran-713a8519
45,Grand Mercure Bangkok Asoke Residence,"50, 5 Sukhumvit 19 Alley, Khwaeng Khlong Toei Nuea, Watthana, Bangkok 10110, Thailand",Boima Harris,Thailand,Bangkok 10110,https://th.linkedin.com/in/boima-harris-92192870
46,Novotel Bangkok Ploenchit Sukhumvit,"566 Phloen Chit Rd, Khwaeng Lumphini, Pathum Wan, Bangkok 10330, Thailand",,Thailand,Bangkok 10330,
47,Mercure Bangkok Siam,"927 Rama I Rd, Wangmai, Pathum Wan, Bangkok 10330, Thailand",Orawan Vicharnarong,Thailand,Bangkok 10330,https://th.linkedin.com/in/orawan-vicharnarong-8550a9123
48,ibis Bangkok Siam,"927 Rama I Rd, Wangmai, Pathum Wan, Bangkok 10330, Thailand",Raphael Hirsch,Thailand,Bangkok 10330,https://th.linkedin.com/in/raphael-hirsch-91357436
49,Novotel Bangkok on Siam Square,"392, 44 Siam Square Soi 6, Khwaeng Pathum Wan, Pathum Wan, Bangkok 10330, Thailand",Gerald Hougardy,Thailand,Bangkok 10330,https://th.linkedin.com/in/gerald-hougardy-a75b97237?trk=public_post-text
50,Sofitel Bangkok Sukhumvit,"189 Sukhumvit Rd, Khwaeng Khlong Toei Nuea, Watthana, Bangkok 10110, Thailand",Pana,Thailand,Bangkok 10110,https://th.linkedin.com/in/pana-ungkap-5b1731123
51,TRIBE Living Bangkok Sukhumvit 39,"122 Soi Sukhumvit 39, Khwaeng Khlong Tan Nuea, Watthana, Bangkok 10110, Thailand",Chef Natra,Thailand,Bangkok 10110,https://id.linkedin.com/in/donald-tampubolon-90321a296
52,Novotel Suites Bangkok Sukhumvit 39,"5/9 Soi Phromsri, Soi Sukhumvit 39, Klongton-nua, Watthana, Bangkok 10110, Thailand",Boima Harris,Thailand,Bangkok 10110,https://th.linkedin.com/in/boima-harris-92192870
53,Novotel Bangkok Sukhumvit 4,"27 Sukhumvit 4 Alley, Khwaeng Khlong Toei, Khet Khlong Toei, Bangkok 10110, Thailand",Denis,Thailand,Bangkok 10110,https://th.linkedin.com/in/dennis-trawnitschek-7b3a8a3
54,ibis Styles Bangkok Sukhumvit 4,"27 Sukhumvit 4 Alley, Khwaeng Khlong Toei, Khet Khlong Toei, Bangkok 10110, Thailand",,Thailand,Bangkok 10110,
55,ibis Bangkok Sukhumvit 4,"41 Sukhumvit Rd, Khwaeng Khlong Toei, Khet Khlong Toei, Bangkok 10110, Thailand",Vinod Singh Negi,Thailand,Bangkok 10110,https://th.linkedin.com/in/vinod-singh-negi-1a475024
56,Novotel Living Bangkok Sukhumvit Legacy,"12-14 Sukhumvit 29 Alley Klong Toey Nua, Bangkok 10110, Thailand",Nikolay Stoyanov.,Thailand,Bangkok 10110,https://bg.linkedin.com/in/nikolay-stoyanov-4301172
57,Novotel Bangkok Sukhumvit 20,"19/9 Sukhumvit 20 Alley, Khwaeng Khlong Toei, Khlong Toei, Bangkok 10110, Thailand",Nikolay Stoyanov,Thailand,Bangkok 10110,https://bg.linkedin.com/in/niksto
58,Mercure Bangkok Sukhumvit 24,"5, 1 Sukhumvit Rd, Khlong Tan, Khet Khlong Toei, Bangkok 10110, Thailand",Boima Harris,Thailand,Bangkok 10110,https://th.linkedin.com/in/boima-harris-92192870
59,Ibis Bangkok Sukhumvit 24,"5, 1 Sukhumvit 24 Road, Khwaeng Khlong Tan, Khet Khlong Toei, Bangkok 10110, Thailand",No information is available about the General Manager of Ibis Bangkok Sukhumvit 24.,Thailand,Bangkok 10110,https://th.linkedin.com/in/boima-harris-92192870
60,Mövenpick Resort Khao Yai,"Nakornratch, T Wangsai A, Pak Chong District, Nakhon Ratchasima 30130, Thailand",No data available.,Thailand,Nakhon Ratchasima 30130,
61,Pullman Khon Kaen Raja Orchid,"9, 9 Prachasumran Road, Nai Mueang, Muang, Khon Kaen 40000, Thailand",Stanley Chan,Thailand,Khon Kaen 40000,https://th.linkedin.com/in/stanley-chan-39a14710
62,Novotel Bangkok Future Park Rangsit,"114 Phahonyothin Rd, Prachathipat, Thanyaburi District, Pathum Thani 12130, Thailand",,Thailand,Pathum Thani 12130,
63,ibis Bangkok IMPACT,"93 Popular Road, Banmai Subdistrict, NONTHABURI, 11120, Thailand","No specific information is provided in the sources about the General Manager of ibis Bangkok IMPACT. Therefore, the response is:

- Blank.",Thailand,11120,https://th.linkedin.com/in/boima-harris-92192870
64,Novotel Bangkok Impact,"94 Popular Rd, Tambon Ban Mai, Pak Kret District, Nonthaburi 11120, Thailand",,Thailand,Nonthaburi 11120,
65,ibis Styles Bangkok Ratchada,"212 Ratchadaphisek Rd, Khwaeng Huai Khwang, Khet Huai Khwang, Bangkok 10310, Thailand",,Thailand,Bangkok 10310,
66,Swissôtel Bangkok Ratchada,"204 Ratchadaphisek Rd, Huai Khwang, Khet Huai Khwang, Bangkok 10320, Thailand",No data available.,Thailand,Bangkok 10320,
67,Pullman Bangkok King Power,"8, 2 Rang Nam Alley, Khwaeng Thanon Phaya Thai, Khet Ratchathewi, Bangkok 10400, Thailand","No specific information is provided about the current General Manager of Pullman Bangkok King Power in the search results. 

- **Blank**",Thailand,Bangkok 10400,https://th.linkedin.com/in/ulhas-shetty-92877053
68,Mercure Bangkok Makkasan,"1599 Kamphaeng Phet 7 Rd, Khwaeng Makkasan, Khet Ratchathewi, Bangkok 10400, Thailand",,Thailand,Bangkok 10400,
69,Grand Mercure Bangkok Atrium,"1880 New Petchaburi Rd, Bangkapi, Khet Huai Khwang, Bangkok 10310, Thailand",Roger Parnow,Thailand,Bangkok 10310,https://th.linkedin.com/in/roger-parnow-5a372185
70,Novotel Bangkok Platinum Pratunam,"220 Phetchaburi Rd, Khwaeng Thanon Phetchaburi, Khet Ratchathewi, Bangkok 10400, Thailand",No data available.,Thailand,Bangkok 10400,
71,Mövenpick BDMS Wellness Resort Bangkok,"2 Witthayu Rd, Lumphini, Pathum Wan, Bangkok 10330, Thailand",,Thailand,Bangkok 10330,
72,VIE Hotel Bangkok - MGallery,"117 39, 40 Phaya Thai Rd, Khwaeng Thanon Phetchaburi, Khet Ratchathewi, Bangkok 10400, Thailand",Nicolas Peth,Thailand,Bangkok 10400,https://th.linkedin.com/in/nicpeth
73,Mercure Bangkok Sukhumvit 11,"18 Soi Sukhumvit 11, Khwaeng Khlong Toei Nuea, Watthana, Bangkok 10110, Thailand",Nikolay Stoyanov,Thailand,Bangkok 10110,https://bg.linkedin.com/in/nikolayestoyanov
74,Mövenpick Hotel Sukhumvit 15 Bangkok,"47 Sukhumvit 15, Khwaeng Khlong Toei Nuea, Watthana, Bangkok 10110, Thailand",Jay Sudhakaran,Thailand,Bangkok 10110,https://th.linkedin.com/in/jay-sudhakaran-713a8519
75,Grand Mercure Bangkok Asoke Residence,"50, 5 Sukhumvit 19 Alley, Khwaeng Khlong Toei Nuea, Watthana, Bangkok 10110, Thailand",Jon Warmington,Thailand,Bangkok 10110,https://th.linkedin.com/in/jon-warmington-9ab53211
76,Novotel Bangkok Ploenchit Sukhumvit,"566 Phloen Chit Rd, Khwaeng Lumphini, Pathum Wan, Bangkok 10330, Thailand",,Thailand,Bangkok 10330,
77,Mercure Bangkok Siam,"927 Rama I Rd, Wangmai, Pathum Wan, Bangkok 10330, Thailand",Orawan Vicharnarong,Thailand,Bangkok 10330,https://th.linkedin.com/in/orawan-vicharnarong-8550a9123
78,ibis Bangkok Siam,"927 Rama I Rd, Wangmai, Pathum Wan, Bangkok 10330, Thailand",Raphael Hirsch,Thailand,Bangkok 10330,https://th.linkedin.com/in/raphael-hirsch-91357436
79,Novotel Bangkok on Siam Square,"392, 44 Siam Square Soi 6, Khwaeng Pathum Wan, Pathum Wan, Bangkok 10330, Thailand",Gerald Hougardy,Thailand,Bangkok 10330,https://th.linkedin.com/in/gerald-hougardy-a75b97237?trk=public_post-text
80,Sofitel Bangkok Sukhumvit,"189 Sukhumvit Rd, Khwaeng Khlong Toei Nuea, Watthana, Bangkok 10110, Thailand",Pana,Thailand,Bangkok 10110,https://th.linkedin.com/in/pana-ungkap-5b1731123
81,TRIBE Living Bangkok Sukhumvit 39,"122 Soi Sukhumvit 39, Khwaeng Khlong Tan Nuea, Watthana, Bangkok 10110, Thailand",Chef Natra,Thailand,Bangkok 10110,https://id.linkedin.com/in/donald-tampubolon-90321a296
82,Novotel Suites Bangkok Sukhumvit 39,"5/9 Soi Phromsri, Soi Sukhumvit 39, Klongton-nua, Watthana, Bangkok 10110, Thailand",,Thailand,Bangkok 10110,
83,Novotel Bangkok Sukhumvit 4,"27 Sukhumvit 4 Alley, Khwaeng Khlong Toei, Khet Khlong Toei, Bangkok 10110, Thailand",Denis,Thailand,Bangkok 10110,https://th.linkedin.com/in/cryptocannabis
84,ibis Styles Bangkok Sukhumvit 4,"27 Sukhumvit 4 Alley, Khwaeng Khlong Toei, Khet Khlong Toei, Bangkok 10110, Thailand",No data available.,Thailand,Bangkok 10110,
85,ibis Bangkok Sukhumvit 4,"41 Sukhumvit Rd, Khwaeng Khlong Toei, Khet Khlong Toei, Bangkok 10110, Thailand",No information is available for the General Manager of ibis Bangkok Sukhumvit 4.,Thailand,Bangkok 10110,https://th.linkedin.com/in/boima-harris-92192870
86,Novotel Living Bangkok Sukhumvit Legacy,"12-14 Sukhumvit 29 Alley Klong Toey Nua, Bangkok 10110, Thailand",Kanta Hanvesakul,Thailand,Bangkok 10110,https://th.linkedin.com/in/kanta-hanvesakul-a222241b
87,Novotel Bangkok Sukhumvit 20,"19/9 Sukhumvit 20 Alley, Khwaeng Khlong Toei, Khlong Toei, Bangkok 10110, Thailand",Kanta Hanvesakul,Thailand,Bangkok 10110,https://th.linkedin.com/in/kanta-hanvesakul-a222241b
88,Mercure Bangkok Sukhumvit 24,"5, 1 Sukhumvit Rd, Khlong Tan, Khet Khlong Toei, Bangkok 10110, Thailand",Boima Harris,Thailand,Bangkok 10110,https://th.linkedin.com/in/boima-harris-92192870
89,Ibis Bangkok Sukhumvit 24,"5, 1 Sukhumvit 24 Road, Khwaeng Khlong Tan, Khet Khlong Toei, Bangkok 10110, Thailand",,Thailand,Bangkok 10110,
90,Homm Sukhumvit 34 Bangkok,"40 ซอย Soi Sukhumvit 34, Khlong Tan, Khlong Toei, Bangkok 10110, Thailand",No data available.,Thailand,Bangkok 10110,
91,Novotel Bangkok Suvarnabhumi Airport,"Suvarnabhumi Airport, 999, Nong Prue, Bang Phli District, Samut Prakan 10540, Thailand",Chris,Thailand,Samut Prakan 10540,https://www.linkedin.com/in/thechrisdo
92,SO/ Bangkok,"2 N Sathon Rd, Silom, Bang Rak, Bangkok 10500, Thailand",No data available.,Thailand,Bangkok 10500,
93,ibis Styles Bangkok Silom,"289 Si Lom Rd, Silom, Bang Rak, Bangkok 10500, Thailand","No specific name is provided in the search results for the General Manager of ibis Styles Bangkok Silom. 

- **Blank**",Thailand,Bangkok 10500,https://th.linkedin.com/in/piyanon-charoensri-8aa52193
94,Mercure Bangkok Surawong,"222 Surawong Rd, Si Phraya, Bang Rak, Bangkok 10500, Thailand",,Thailand,Bangkok 10500,
95,Banyan Tree Bangkok,"Located in: Thai Wah Plaza Co.,LTD, 21/100 S Sathon Rd, Thung Maha Mek, Sathon, Bangkok 10120, Thailand",Eddy See,Thailand,Bangkok 10120,https://sg.linkedin.com/in/eddy-see-a41925128
96,Pullman Bangkok Hotel G,"188 Si Lom Rd, Khwaeng Suriya Wong, Khet Bang Rak, Bangkok 10500, Thailand",Marie Bertrand.,Thailand,Bangkok 10500,https://fr.linkedin.com/in/marieevbertrand
97,ibis Bangkok Sathorn,"Ngam Duphli Alley, Khwaeng Thung Maha Mek, Khet Sathon, Bangkok 10120, Thailand",Nikolay Stoyanov.,Thailand,Bangkok 10120,https://bg.linkedin.com/in/nikolayestoyanov
98,ibis Styles Bangkok Sukhumvit Phra Khanong,"1122 Sukhumvit Rd, Khwaeng Phra Khanong, Khet Khlong Toei, Bangkok 10110, Thailand",,Thailand,Bangkok 10110,
99,ibis Bangkok Riverside,"27 Soi Charoen Nakhon 17, Khwaeng Bang Lamphu Lang, Khet Khlong San, Bangkok 10600, Thailand",Vinod Singh Negi,Thailand,Bangkok 10600,https://th.linkedin.com/in/vinod-singh-negi-1a475024
100,Mövenpick Resort Khao Yai,"Nakornratch, T Wangsai A, Pak Chong District, Nakhon Ratchasima 30130, Thailand",No information available.,Thailand,Nakhon Ratchasima 30130,
101,Pullman Khon Kaen Raja Orchid,"9, 9 Prachasumran Road, Nai Mueang, Muang, Khon Kaen 40000, Thailand",Sirilug Kraisoda,Thailand,Khon Kaen 40000,
102,Novotel Bangkok Future Park Rangsit,"114 Phahonyothin Rd, Prachathipat, Thanyaburi District, Pathum Thani 12130, Thailand",No data available.,Thailand,Pathum Thani 12130,
103,ibis Bangkok IMPACT,"93 Popular Road, Banmai Subdistrict, NONTHABURI, 11120, Thailand",No data available for the General Manager of ibis Bangkok IMPACT.,Thailand,11120,https://th.linkedin.com/in/eric-rimbeuf-garnier-8b063a61
104,Novotel Bangkok Impact,"94 Popular Rd, Tambon Ban Mai, Pak Kret District, Nonthaburi 11120, Thailand",No data available.,Thailand,Nonthaburi 11120,
105,ibis Styles Bangkok Ratchada,"212 Ratchadaphisek Rd, Khwaeng Huai Khwang, Khet Huai Khwang, Bangkok 10310, Thailand",,Thailand,Bangkok 10310,
106,Swissôtel Bangkok Ratchada,"204 Ratchadaphisek Rd, Huai Khwang, Khet Huai Khwang, Bangkok 10320, Thailand",,Thailand,Bangkok 10320,
107,Pullman Bangkok King Power,"8, 2 Rang Nam Alley, Khwaeng Thanon Phaya Thai, Khet Ratchathewi, Bangkok 10400, Thailand",Luc Bollen,Thailand,Bangkok 10400,https://hk.linkedin.com/in/ljjbollen
108,Mercure Bangkok Makkasan,"1599 Kamphaeng Phet 7 Rd, Khwaeng Makkasan, Khet Ratchathewi, Bangkok 10400, Thailand",No data available.,Thailand,Bangkok 10400,
109,Grand Mercure Bangkok Atrium,"1880 New Petchaburi Rd, Bangkapi, Khet Huai Khwang, Bangkok 10310, Thailand",Roger Parnow,Thailand,Bangkok 10310,https://th.linkedin.com/in/roger-parnow-5a372185
110,Novotel Bangkok Platinum Pratunam,"220 Phetchaburi Rd, Khwaeng Thanon Phetchaburi, Khet Ratchathewi, Bangkok 10400, Thailand",No updated data available.,Thailand,Bangkok 10400,
111,Mövenpick BDMS Wellness Resort Bangkok,"2 Witthayu Rd, Lumphini, Pathum Wan, Bangkok 10330, Thailand","No specific name is provided in the sources for the General Manager of Mövenpick BDMS Wellness Resort Bangkok. 

- **Blank**",Thailand,Bangkok 10330,https://th.linkedin.com/in/rubelmmiah
112,VIE Hotel Bangkok - MGallery,"117 39, 40 Phaya Thai Rd, Khwaeng Thanon Phetchaburi, Khet Ratchathewi, Bangkok 10400, Thailand",Nicolas Peth,Thailand,Bangkok 10400,https://th.linkedin.com/in/nicpeth
113,Mercure Bangkok Sukhumvit 11,"18 Soi Sukhumvit 11, Khwaeng Khlong Toei Nuea, Watthana, Bangkok 10110, Thailand",Nikolay Stoyanov,Thailand,Bangkok 10110,https://bg.linkedin.com/in/niksto
114,Mövenpick Hotel Sukhumvit 15 Bangkok,"47 Sukhumvit 15, Khwaeng Khlong Toei Nuea, Watthana, Bangkok 10110, Thailand",Jay Sudhakaran,Thailand,Bangkok 10110,https://th.linkedin.com/in/jay-sudhakaran-713a8519
115,Grand Mercure Bangkok Asoke Residence,"50, 5 Sukhumvit 19 Alley, Khwaeng Khlong Toei Nuea, Watthana, Bangkok 10110, Thailand",Jon Warmington,Thailand,Bangkok 10110,https://th.linkedin.com/in/jon-warmington-9ab53211
116,Novotel Bangkok Ploenchit Sukhumvit,"566 Phloen Chit Rd, Khwaeng Lumphini, Pathum Wan, Bangkok 10330, Thailand",,Thailand,Bangkok 10330,
117,Mercure Bangkok Siam,"927 Rama I Rd, Wangmai, Pathum Wan, Bangkok 10330, Thailand",Nikolay Stoyanov,Thailand,Bangkok 10330,https://bg.linkedin.com/in/nikolay-stoyanov-4301172
118,ibis Bangkok Siam,"927 Rama I Rd, Wangmai, Pathum Wan, Bangkok 10330, Thailand",Nikolay Stoyanov,Thailand,Bangkok 10330,https://bg.linkedin.com/in/niksto
119,Novotel Bangkok on Siam Square,"392, 44 Siam Square Soi 6, Khwaeng Pathum Wan, Pathum Wan, Bangkok 10330, Thailand",Arunee Nopparat,Thailand,Bangkok 10330,https://th.linkedin.com/in/arunee-somudorn-595980b8
120,Sofitel Bangkok Sukhumvit,"189 Sukhumvit Rd, Khwaeng Khlong Toei Nuea, Watthana, Bangkok 10110, Thailand",Pana,Thailand,Bangkok 10110,https://th.linkedin.com/in/pana-ungkap-5b1731123
121,TRIBE Living Bangkok Sukhumvit 39,"122 Soi Sukhumvit 39, Khwaeng Khlong Tan Nuea, Watthana, Bangkok 10110, Thailand",No data available.,Thailand,Bangkok 10110,
122,Novotel Suites Bangkok Sukhumvit 39,"5/9 Soi Phromsri, Soi Sukhumvit 39, Klongton-nua, Watthana, Bangkok 10110, Thailand",Boima Harris,Thailand,Bangkok 10110,https://th.linkedin.com/in/boima-harris-92192870
123,Novotel Bangkok Sukhumvit 4,"27 Sukhumvit 4 Alley, Khwaeng Khlong Toei, Khet Khlong Toei, Bangkok 10110, Thailand",No data available.,Thailand,Bangkok 10110,
124,ibis Styles Bangkok Sukhumvit 4,"27 Sukhumvit 4 Alley, Khwaeng Khlong Toei, Khet Khlong Toei, Bangkok 10110, Thailand",No data available for the General Manager of ibis Styles Bangkok Sukhumvit 4.,Thailand,Bangkok 10110,https://th.linkedin.com/in/piyada-anyoo-beaudet-4453766
125,ibis Bangkok Sukhumvit 4,"41 Sukhumvit Rd, Khwaeng Khlong Toei, Khet Khlong Toei, Bangkok 10110, Thailand",Vinod Singh Negi,Thailand,Bangkok 10110,https://th.linkedin.com/in/vinod-singh-negi-1a475024
126,Novotel Living Bangkok Sukhumvit Legacy,"12-14 Sukhumvit 29 Alley Klong Toey Nua, Bangkok 10110, Thailand",Boima Harris,Thailand,Bangkok 10110,https://th.linkedin.com/in/boima-harris-92192870
127,Novotel Bangkok Sukhumvit 20,"19/9 Sukhumvit 20 Alley, Khwaeng Khlong Toei, Khlong Toei, Bangkok 10110, Thailand",Nikolay Stoyanov,Thailand,Bangkok 10110,https://bg.linkedin.com/in/nikolay-stoyanov-4301172
128,Mercure Bangkok Sukhumvit 24,"5, 1 Sukhumvit Rd, Khlong Tan, Khet Khlong Toei, Bangkok 10110, Thailand",Nikolay Stoyanov,Thailand,Bangkok 10110,https://bg.linkedin.com/in/nikolayestoyanov
129,Ibis Bangkok Sukhumvit 24,"5, 1 Sukhumvit 24 Road, Khwaeng Khlong Tan, Khet Khlong Toei, Bangkok 10110, Thailand",Nikolay Stoyanov,Thailand,Bangkok 10110,https://bg.linkedin.com/in/nikolay-stoyanov-4301172
130,Homm Sukhumvit 34 Bangkok,"40 ซอย Soi Sukhumvit 34, Khlong Tan, Khlong Toei, Bangkok 10110, Thailand",Boima Harris,Thailand,Bangkok 10110,https://th.linkedin.com/in/boima-harris-92192870
131,Novotel Bangkok Suvarnabhumi Airport,"Suvarnabhumi Airport, 999, Nong Prue, Bang Phli District, Samut Prakan 10540, Thailand",Chris,Thailand,Samut Prakan 10540,https://www.linkedin.com/in/thechrisdo
132,SO/ Bangkok,"2 N Sathon Rd, Silom, Bang Rak, Bangkok 10500, Thailand",Mark O'Sullivan,Thailand,Bangkok 10500,https://th.linkedin.com/in/mark-o-sullivan-a23b42b
133,ibis Styles Bangkok Silom,"289 Si Lom Rd, Silom, Bang Rak, Bangkok 10500, Thailand",Pattama Yoshimura.,Thailand,Bangkok 10500,https://th.linkedin.com/in/pattama-yoshimura-19b6a02b
134,Mercure Bangkok Surawong,"222 Surawong Rd, Si Phraya, Bang Rak, Bangkok 10500, Thailand",Benjamin Lehmann,Thailand,Bangkok 10500,https://kh.linkedin.com/in/benjaminlehmann
135,Banyan Tree Bangkok,"Located in: Thai Wah Plaza Co.,LTD, 21/100 S Sathon Rd, Thung Maha Mek, Sathon, Bangkok 10120, Thailand",,Thailand,Bangkok 10120,
136,Pullman Bangkok Hotel G,"188 Si Lom Rd, Khwaeng Suriya Wong, Khet Bang Rak, Bangkok 10500, Thailand",Marie Bertrand,Thailand,Bangkok 10500,https://fr.linkedin.com/in/marieevbertrand
137,ibis Bangkok Sathorn,"Ngam Duphli Alley, Khwaeng Thung Maha Mek, Khet Sathon, Bangkok 10120, Thailand",Orawan VICHARNARONG,Thailand,Bangkok 10120,https://th.linkedin.com/in/orawan-vicharnarong-8550a9123
138,ibis Styles Bangkok Sukhumvit Phra Khanong,"1122 Sukhumvit Rd, Khwaeng Phra Khanong, Khet Khlong Toei, Bangkok 10110, Thailand",,Thailand,Bangkok 10110,
139,ibis Bangkok Riverside,"27 Soi Charoen Nakhon 17, Khwaeng Bang Lamphu Lang, Khet Khlong San, Bangkok 10600, Thailand",Vinod Singh Negi,Thailand,Bangkok 10600,https://th.linkedin.com/in/vinod-singh-negi-1a475024
140,ibis Styles Bangkok Sukhumvit 50,"2026, 11 Sukhumvit 50 Aly, Khwaeng Phra Khanong, Khlong Toei, Bangkok 10260, Thailand",No data available.,Thailand,Bangkok 10260,
141,Novotel Bangkok Bangna,"333 Srinagarindra Rd, Khwaeng Nong Bon, Khet Prawet, Bangkok 10250, Thailand",,Thailand,Bangkok 10250,
142,NOVOTEL KOH SI CHANG,"333 Tha Thewawong, Ko Sichang District, Chon Buri 20120, Thailand",No data available.,Thailand,Chon Buri 20120,
143,Novotel Marina Sriracha,"339 Jerm Jom Phon Road, Amphoe Si Racha, Chon Buri 20110, Thailand",No information available.,Thailand,Chon Buri 20110,
144,Pullman Pattaya Hotel G,"445 Soi Saranchon, Muang Pattaya, Bang Lamung District, Chon Buri 20150, Thailand",Othmane Amrani,Thailand,Chon Buri 20150,https://sg.linkedin.com/in/othmane-amrani-485a2036
145,ibis Pattaya,"463, Nhongprue, 79, Pattaya City, Bang Lamung District, Chang Wat Chon Buri 20150, Thailand",No data available.,Thailand,Chang Wat Chon Buri 20150,
146,Mercure Pattaya Ocean Resort,"463, Nhongprue, 100 Pattaya Soi 2, Pattaya City, Bang Lamung District, Chang Wat Chon Buri 20150, Thailand",No information is provided about the General Manager of Mercure Pattaya Ocean Resort in the given sources.,Thailand,Chang Wat Chon Buri 20150,https://th.linkedin.com/in/pablo-lopez-1981mcnchee
147,Veranda Resort Pattaya - MGallery,"211 Moo 1, Muang Pattaya, Sattahip District, Chon Buri 20250, Thailand",Preeyaporn Thongkum,Thailand,Chon Buri 20250,https://th.linkedin.com/in/preeyaporn-wongmoh-915843198
148,Mövenpick Siam Na Jomtien Pattaya,"55, Na, Sukhumvit Rd, Tambon Na Chom Thian, Sattahip District, Chon Buri 20250, Thailand","No information is provided about the General Manager of Mövenpick Siam Na Jomtien Pattaya in the search results. 

- **Blank**",Thailand,Chon Buri 20250,https://th.linkedin.com/in/movenpick-siam-hotel-na-jomtien-pattaya-3b5531221
149,SO/ Sofitel Hua Hin,"115, Tambol Bangkao, Bang Kao, Hua Hin, Chang Wat Phetchaburi 76120, Thailand",No data available.,Thailand,Chang Wat Phetchaburi 76120,
150,Mövenpick Resort Khao Yai,"Nakornratch, T Wangsai A, Pak Chong District, Nakhon Ratchasima 30130, Thailand",No information available.,Thailand,Nakhon Ratchasima 30130,
151,Pullman Khon Kaen Raja Orchid,"9, 9 Prachasumran Road, Nai Mueang, Muang, Khon Kaen 40000, Thailand",Sirilug Kraisoda,Thailand,Khon Kaen 40000,
152,Novotel Bangkok Future Park Rangsit,"114 Phahonyothin Rd, Prachathipat, Thanyaburi District, Pathum Thani 12130, Thailand",No updated data available.,Thailand,Pathum Thani 12130,
153,ibis Bangkok IMPACT,"93 Popular Road, Banmai Subdistrict, NONTHABURI, 11120, Thailand",Vinod Singh Negi.,Thailand,11120,https://th.linkedin.com/in/vinod-singh-negi-1a475024
154,Novotel Bangkok Impact,"94 Popular Rd, Tambon Ban Mai, Pak Kret District, Nonthaburi 11120, Thailand",,Thailand,Nonthaburi 11120,
155,ibis Styles Bangkok Ratchada,"212 Ratchadaphisek Rd, Khwaeng Huai Khwang, Khet Huai Khwang, Bangkok 10310, Thailand",,Thailand,Bangkok 10310,
156,Swissôtel Bangkok Ratchada,"204 Ratchadaphisek Rd, Huai Khwang, Khet Huai Khwang, Bangkok 10320, Thailand",No data available.,Thailand,Bangkok 10320,
157,Pullman Bangkok King Power,"8, 2 Rang Nam Alley, Khwaeng Thanon Phaya Thai, Khet Ratchathewi, Bangkok 10400, Thailand",No updated data available.,Thailand,Bangkok 10400,
158,Mercure Bangkok Makkasan,"1599 Kamphaeng Phet 7 Rd, Khwaeng Makkasan, Khet Ratchathewi, Bangkok 10400, Thailand",No data available.,Thailand,Bangkok 10400,
159,Grand Mercure Bangkok Atrium,"1880 New Petchaburi Rd, Bangkapi, Khet Huai Khwang, Bangkok 10310, Thailand",No data available for the General Manager of Grand Mercure Bangkok Atrium.,Thailand,Bangkok 10310,https://th.linkedin.com/in/jon-warmington-9ab53211
160,Novotel Bangkok Platinum Pratunam,"220 Phetchaburi Rd, Khwaeng Thanon Phetchaburi, Khet Ratchathewi, Bangkok 10400, Thailand",No specific information is available about the current General Manager of Novotel Bangkok Platinum Pratunam.,Thailand,Bangkok 10400,https://th.linkedin.com/in/cindydelhomel
161,Mövenpick BDMS Wellness Resort Bangkok,"2 Witthayu Rd, Lumphini, Pathum Wan, Bangkok 10330, Thailand","No information is provided in the search results regarding the name of the General Manager at Mövenpick BDMS Wellness Resort Bangkok. 

- **Blank**",Thailand,Bangkok 10330,https://th.linkedin.com/in/rubelmmiah
162,VIE Hotel Bangkok - MGallery,"117 39, 40 Phaya Thai Rd, Khwaeng Thanon Phetchaburi, Khet Ratchathewi, Bangkok 10400, Thailand",Nicolas Peth,Thailand,Bangkok 10400,https://th.linkedin.com/in/nicpeth
163,Mercure Bangkok Sukhumvit 11,"18 Soi Sukhumvit 11, Khwaeng Khlong Toei Nuea, Watthana, Bangkok 10110, Thailand",Nikolay Stoyanov,Thailand,Bangkok 10110,https://bg.linkedin.com/in/niksto
164,Mövenpick Hotel Sukhumvit 15 Bangkok,"47 Sukhumvit 15, Khwaeng Khlong Toei Nuea, Watthana, Bangkok 10110, Thailand",Jay Sudhakaran,Thailand,Bangkok 10110,https://th.linkedin.com/in/jay-sudhakaran-713a8519
165,Grand Mercure Bangkok Asoke Residence,"50, 5 Sukhumvit 19 Alley, Khwaeng Khlong Toei Nuea, Watthana, Bangkok 10110, Thailand",Boima Harris,Thailand,Bangkok 10110,https://th.linkedin.com/in/boima-harris-92192870
166,Novotel Bangkok Ploenchit Sukhumvit,"566 Phloen Chit Rd, Khwaeng Lumphini, Pathum Wan, Bangkok 10330, Thailand",,Thailand,Bangkok 10330,
167,Mercure Bangkok Siam,"927 Rama I Rd, Wangmai, Pathum Wan, Bangkok 10330, Thailand",Orawan Vicharnarong,Thailand,Bangkok 10330,https://th.linkedin.com/in/orawan-vicharnarong-8550a9123
168,ibis Bangkok Siam,"927 Rama I Rd, Wangmai, Pathum Wan, Bangkok 10330, Thailand",Nikolay Stoyanov,Thailand,Bangkok 10330,https://bg.linkedin.com/in/nikolayestoyanov
169,Novotel Bangkok on Siam Square,"392, 44 Siam Square Soi 6, Khwaeng Pathum Wan, Pathum Wan, Bangkok 10330, Thailand","Novotel Team A, General Manager at Novotel Bangkok Platinum Pratunam - A. General Manager. 

**Response: A. General Manager**",Thailand,Bangkok 10330,https://th.linkedin.com/in/novotel-bangkok-platinum-1381285a
170,Sofitel Bangkok Sukhumvit,"189 Sukhumvit Rd, Khwaeng Khlong Toei Nuea, Watthana, Bangkok 10110, Thailand",Pana,Thailand,Bangkok 10110,https://th.linkedin.com/in/pana-ungkap-5b1731123
171,TRIBE Living Bangkok Sukhumvit 39,"122 Soi Sukhumvit 39, Khwaeng Khlong Tan Nuea, Watthana, Bangkok 10110, Thailand",Chef Natra,Thailand,Bangkok 10110,https://id.linkedin.com/in/donald-tampubolon-90321a296
172,Novotel Suites Bangkok Sukhumvit 39,"5/9 Soi Phromsri, Soi Sukhumvit 39, Klongton-nua, Watthana, Bangkok 10110, Thailand",Boima Harris,Thailand,Bangkok 10110,https://th.linkedin.com/in/boima-harris-92192870
173,Novotel Bangkok Sukhumvit 4,"27 Sukhumvit 4 Alley, Khwaeng Khlong Toei, Khet Khlong Toei, Bangkok 10110, Thailand",Denis.,Thailand,Bangkok 10110,https://th.linkedin.com/in/cryptocannabis
174,ibis Styles Bangkok Sukhumvit 4,"27 Sukhumvit 4 Alley, Khwaeng Khlong Toei, Khet Khlong Toei, Bangkok 10110, Thailand",No data available for the General Manager of ibis Styles Bangkok Sukhumvit 4.,Thailand,Bangkok 10110,https://th.linkedin.com/in/piyada-anyoo-beaudet-4453766
175,ibis Bangkok Sukhumvit 4,"41 Sukhumvit Rd, Khwaeng Khlong Toei, Khet Khlong Toei, Bangkok 10110, Thailand",Vinod Singh Negi.,Thailand,Bangkok 10110,https://th.linkedin.com/in/vinod-singh-negi-1a475024
176,Novotel Living Bangkok Sukhumvit Legacy,"12-14 Sukhumvit 29 Alley Klong Toey Nua, Bangkok 10110, Thailand",Boima Harris,Thailand,Bangkok 10110,https://th.linkedin.com/in/boima-harris-92192870
177,Novotel Bangkok Sukhumvit 20,"19/9 Sukhumvit 20 Alley, Khwaeng Khlong Toei, Khlong Toei, Bangkok 10110, Thailand",Nikolay Stoyanov,Thailand,Bangkok 10110,https://bg.linkedin.com/in/niksto
178,Mercure Bangkok Sukhumvit 24,"5, 1 Sukhumvit Rd, Khlong Tan, Khet Khlong Toei, Bangkok 10110, Thailand",Boima Harris,Thailand,Bangkok 10110,https://th.linkedin.com/in/boima-harris-92192870
179,Ibis Bangkok Sukhumvit 24,"5, 1 Sukhumvit 24 Road, Khwaeng Khlong Tan, Khet Khlong Toei, Bangkok 10110, Thailand",Nikolay Stoyanov.,Thailand,Bangkok 10110,https://bg.linkedin.com/in/niksto
180,Homm Sukhumvit 34 Bangkok,"40 ซอย Soi Sukhumvit 34, Khlong Tan, Khlong Toei, Bangkok 10110, Thailand",,Thailand,Bangkok 10110,
181,Novotel Bangkok Suvarnabhumi Airport,"Suvarnabhumi Airport, 999, Nong Prue, Bang Phli District, Samut Prakan 10540, Thailand",Chris,Thailand,Samut Prakan 10540,https://www.linkedin.com/in/thechrisdo
182,SO/ Bangkok,"2 N Sathon Rd, Silom, Bang Rak, Bangkok 10500, Thailand",Blair Fowler,Thailand,Bangkok 10500,https://www.linkedin.com/in/blairfowler
183,ibis Styles Bangkok Silom,"289 Si Lom Rd, Silom, Bang Rak, Bangkok 10500, Thailand",Vinod Singh Negi,Thailand,Bangkok 10500,https://th.linkedin.com/in/vinod-singh-negi-1a475024
184,Mercure Bangkok Surawong,"222 Surawong Rd, Si Phraya, Bang Rak, Bangkok 10500, Thailand",Patcharaporn Rattanasaenghirun,Thailand,Bangkok 10500,https://th.linkedin.com/in/patcharaporn-rattanasaenghirun-9aa826184
185,Banyan Tree Bangkok,"Located in: Thai Wah Plaza Co.,LTD, 21/100 S Sathon Rd, Thung Maha Mek, Sathon, Bangkok 10120, Thailand",Tina Liu,Thailand,Bangkok 10120,https://th.linkedin.com/in/tina-liu-58625494
186,Pullman Bangkok Hotel G,"188 Si Lom Rd, Khwaeng Suriya Wong, Khet Bang Rak, Bangkok 10500, Thailand",Marie Bertrand,Thailand,Bangkok 10500,https://fr.linkedin.com/in/marieevbertrand
187,ibis Bangkok Sathorn,"Ngam Duphli Alley, Khwaeng Thung Maha Mek, Khet Sathon, Bangkok 10120, Thailand",Vinod Singh Negi,Thailand,Bangkok 10120,https://th.linkedin.com/in/vinod-singh-negi-1a475024
188,ibis Styles Bangkok Sukhumvit Phra Khanong,"1122 Sukhumvit Rd, Khwaeng Phra Khanong, Khet Khlong Toei, Bangkok 10110, Thailand",No data available.,Thailand,Bangkok 10110,
189,ibis Bangkok Riverside,"27 Soi Charoen Nakhon 17, Khwaeng Bang Lamphu Lang, Khet Khlong San, Bangkok 10600, Thailand",Vinod Singh Negi,Thailand,Bangkok 10600,https://th.linkedin.com/in/vinod-singh-negi-1a475024
190,ibis Styles Bangkok Sukhumvit 50,"2026, 11 Sukhumvit 50 Aly, Khwaeng Phra Khanong, Khlong Toei, Bangkok 10260, Thailand",,Thailand,Bangkok 10260,
191,Novotel Bangkok Bangna,"333 Srinagarindra Rd, Khwaeng Nong Bon, Khet Prawet, Bangkok 10250, Thailand",No data available.,Thailand,Bangkok 10250,
192,NOVOTEL KOH SI CHANG,"333 Tha Thewawong, Ko Sichang District, Chon Buri 20120, Thailand",No data available.,Thailand,Chon Buri 20120,
193,Novotel Marina Sriracha,"339 Jerm Jom Phon Road, Amphoe Si Racha, Chon Buri 20110, Thailand",,Thailand,Chon Buri 20110,
194,Pullman Pattaya Hotel G,"445 Soi Saranchon, Muang Pattaya, Bang Lamung District, Chon Buri 20150, Thailand",No data available.,Thailand,Chon Buri 20150,
195,ibis Pattaya,"463, Nhongprue, 79, Pattaya City, Bang Lamung District, Chang Wat Chon Buri 20150, Thailand",Nikolay Stoyanov,Thailand,Chang Wat Chon Buri 20150,https://bg.linkedin.com/in/nikolay-stoyanov-4301172
196,Mercure Pattaya Ocean Resort,"463, Nhongprue, 100 Pattaya Soi 2, Pattaya City, Bang Lamung District, Chang Wat Chon Buri 20150, Thailand",No data available.,Thailand,Chang Wat Chon Buri 20150,
197,Veranda Resort Pattaya - MGallery,"211 Moo 1, Muang Pattaya, Sattahip District, Chon Buri 20250, Thailand",Preeyaporn Thongkum,Thailand,Chon Buri 20250,https://th.linkedin.com/in/preeyaporn-wongmoh-915843198
198,Mövenpick Siam Na Jomtien Pattaya,"55, Na, Sukhumvit Rd, Tambon Na Chom Thian, Sattahip District, Chon Buri 20250, Thailand",No information available.,Thailand,Chon Buri 20250,
199,SO/ Sofitel Hua Hin,"115, Tambol Bangkao, Bang Kao, Hua Hin, Chang Wat Phetchaburi 76120, Thailand",No updated data is provided for the General Manager of SO/ Sofitel Hua Hin.,Thailand,Chang Wat Phetchaburi 76120,
200,Novotel Rayong Star Convention Centre,"109 Sukhumvit Rd, Tha Pradu, Mueang Rayong District, Rayong 21000, Thailand",Jirachot Chanjindachot,Thailand,Rayong 21000,
201,Novotel Rayong Rim Pae Resort,"4, 5 ถนน เพ-แกลง-กร่ำ, Chakphong, Klaeng District, Rayong 21190, Thailand",,Thailand,Rayong 21190,
202,Mercure Rayong Lomtalay Villas & Resort,"289, Kram, Klaeng District, Chang Wat Rayong 21190, Thailand",,Thailand,Chang Wat Rayong 21190,
203,Mövenpick Asara Resort & Spa Hua Hin,"Amphur, 53 Hua Hin 5 Alley, Hua Hin, Hua Hin District, Prachuap Khiri Khan 77110, Thailand",Orly,Thailand,Prachuap Khiri Khan 77110,https://th.linkedin.com/in/orly-carrasco-2a7b299
204,V Villas Hua Hin - MGallery,"63, 39 Phet Kasem Rd, Tambon Nong Kae, Hua Hin District, Prachuap Khiri Khan 77110, Thailand",No data available.,Thailand,Prachuap Khiri Khan 77110,
205,ibis Hua Hin,"Phet Kasem Rd, Hua Hin, Hua Hin District, Chang Wat Prachuap Khiri Khan 77110, Thailand",No information available.,Thailand,Chang Wat Prachuap Khiri Khan 77110,
206,Veranda High Resort Chiang Mai - MGallery,"192, Ban Pong, Mueang Chiang Mai District, Chiang Mai 50230, Thailand",No data available.,Thailand,Chiang Mai 50230,
207,Novotel Chiangmai Nimman Journeyhub,"7, 77 หมู่ที่ 2 Huay Kaew Rd, Chang Phueak, Mueang Chiang Mai District, Chiang Mai 50300, Thailand",No data available.,Thailand,Chiang Mai 50300,
208,ibis Chiang Mai Nimman Journeyhub,"7 17 Huay Kaew Rd, Tambon Chang Phueak, Mueang Chiang Mai District, Chiang Mai 50300, Thailand",No data available.,Thailand,Chiang Mai 50300,
209,ibis Styles Chiang Mai,"7, Kanklong, 9, Tambon Chang Phueak, Mueang Chiang Mai District, Chiang Mai 50300, Thailand",Sirisook Moore,Thailand,Chiang Mai 50300,https://th.linkedin.com/in/sirisook-moore-0a217590
210,Mövenpick Resort Khao Yai,"Nakornratch, T Wangsai A, Pak Chong District, Nakhon Ratchasima 30130, Thailand",No information available.,Thailand,Nakhon Ratchasima 30130,
211,Pullman Khon Kaen Raja Orchid,"9, 9 Prachasumran Road, Nai Mueang, Muang, Khon Kaen 40000, Thailand",Stanley Chan,Thailand,Khon Kaen 40000,https://th.linkedin.com/in/stanley-chan-39a14710
212,Novotel Bangkok Future Park Rangsit,"114 Phahonyothin Rd, Prachathipat, Thanyaburi District, Pathum Thani 12130, Thailand",,Thailand,Pathum Thani 12130,
213,ibis Bangkok IMPACT,"93 Popular Road, Banmai Subdistrict, NONTHABURI, 11120, Thailand",No data available for the General Manager of ibis Bangkok IMPACT.,Thailand,11120,https://th.linkedin.com/in/eric-rimbeuf-garnier-8b063a61
214,Novotel Bangkok Impact,"94 Popular Rd, Tambon Ban Mai, Pak Kret District, Nonthaburi 11120, Thailand",Denis,Thailand,Nonthaburi 11120,https://th.linkedin.com/in/cryptocannabis
215,ibis Styles Bangkok Ratchada,"212 Ratchadaphisek Rd, Khwaeng Huai Khwang, Khet Huai Khwang, Bangkok 10310, Thailand",No information available.,Thailand,Bangkok 10310,
216,Swissôtel Bangkok Ratchada,"204 Ratchadaphisek Rd, Huai Khwang, Khet Huai Khwang, Bangkok 10320, Thailand",No data available.,Thailand,Bangkok 10320,
217,Pullman Bangkok King Power,"8, 2 Rang Nam Alley, Khwaeng Thanon Phaya Thai, Khet Ratchathewi, Bangkok 10400, Thailand",No updated data available.,Thailand,Bangkok 10400,
218,Mercure Bangkok Makkasan,"1599 Kamphaeng Phet 7 Rd, Khwaeng Makkasan, Khet Ratchathewi, Bangkok 10400, Thailand",No data available.,Thailand,Bangkok 10400,
219,Grand Mercure Bangkok Atrium,"1880 New Petchaburi Rd, Bangkapi, Khet Huai Khwang, Bangkok 10310, Thailand","No specific information is provided about the General Manager of the Grand Mercure Bangkok Atrium in the search results. Therefore, the response is:

Blank.",Thailand,Bangkok 10310,https://th.linkedin.com/in/jon-warmington-9ab53211
220,Novotel Bangkok Platinum Pratunam,"220 Phetchaburi Rd, Khwaeng Thanon Phetchaburi, Khet Ratchathewi, Bangkok 10400, Thailand","No specific information is provided about the General Manager's name in the given sources. 

- **Blank**",Thailand,Bangkok 10400,
221,Mövenpick BDMS Wellness Resort Bangkok,"2 Witthayu Rd, Lumphini, Pathum Wan, Bangkok 10330, Thailand","No information is provided about the General Manager's name in the given sources. 

- **Blank**",Thailand,Bangkok 10330,
222,VIE Hotel Bangkok - MGallery,"117 39, 40 Phaya Thai Rd, Khwaeng Thanon Phetchaburi, Khet Ratchathewi, Bangkok 10400, Thailand",Nicolas Peth,Thailand,Bangkok 10400,https://th.linkedin.com/in/nicpeth
223,Mercure Bangkok Sukhumvit 11,"18 Soi Sukhumvit 11, Khwaeng Khlong Toei Nuea, Watthana, Bangkok 10110, Thailand",Boima Harris,Thailand,Bangkok 10110,https://th.linkedin.com/in/boima-harris-92192870
224,Mövenpick Hotel Sukhumvit 15 Bangkok,"47 Sukhumvit 15, Khwaeng Khlong Toei Nuea, Watthana, Bangkok 10110, Thailand",Jay Sudhakaran,Thailand,Bangkok 10110,https://th.linkedin.com/in/jay-sudhakaran-713a8519
225,Grand Mercure Bangkok Asoke Residence,"50, 5 Sukhumvit 19 Alley, Khwaeng Khlong Toei Nuea, Watthana, Bangkok 10110, Thailand",Jon Warmington,Thailand,Bangkok 10110,https://th.linkedin.com/in/jon-warmington-9ab53211
226,Novotel Bangkok Ploenchit Sukhumvit,"566 Phloen Chit Rd, Khwaeng Lumphini, Pathum Wan, Bangkok 10330, Thailand",,Thailand,Bangkok 10330,
227,Mercure Bangkok Siam,"927 Rama I Rd, Wangmai, Pathum Wan, Bangkok 10330, Thailand",Orawan Vicharnarong,Thailand,Bangkok 10330,https://th.linkedin.com/in/orawan-vicharnarong-8550a9123
228,ibis Bangkok Siam,"927 Rama I Rd, Wangmai, Pathum Wan, Bangkok 10330, Thailand",Raphael Hirsch,Thailand,Bangkok 10330,https://th.linkedin.com/in/raphael-hirsch-91357436
229,Novotel Bangkok on Siam Square,"392, 44 Siam Square Soi 6, Khwaeng Pathum Wan, Pathum Wan, Bangkok 10330, Thailand",Gerald Hougardy,Thailand,Bangkok 10330,https://th.linkedin.com/in/gerald-hougardy-a75b97237?trk=public_post-text
230,Sofitel Bangkok Sukhumvit,"189 Sukhumvit Rd, Khwaeng Khlong Toei Nuea, Watthana, Bangkok 10110, Thailand",Pana Kittipat,Thailand,Bangkok 10110,https://th.linkedin.com/in/pana-sittipan-0b6ab0a1
231,TRIBE Living Bangkok Sukhumvit 39,"122 Soi Sukhumvit 39, Khwaeng Khlong Tan Nuea, Watthana, Bangkok 10110, Thailand",Chef Natra,Thailand,Bangkok 10110,https://mv.linkedin.com/in/donald-hotbel-p-tampubolon-707040a6
232,Novotel Suites Bangkok Sukhumvit 39,"5/9 Soi Phromsri, Soi Sukhumvit 39, Klongton-nua, Watthana, Bangkok 10110, Thailand",Boima Harris,Thailand,Bangkok 10110,https://th.linkedin.com/in/boima-harris-92192870
233,Novotel Bangkok Sukhumvit 4,"27 Sukhumvit 4 Alley, Khwaeng Khlong Toei, Khet Khlong Toei, Bangkok 10110, Thailand",No data available.,Thailand,Bangkok 10110,
234,ibis Styles Bangkok Sukhumvit 4,"27 Sukhumvit 4 Alley, Khwaeng Khlong Toei, Khet Khlong Toei, Bangkok 10110, Thailand",No information is available about the General Manager of ibis Styles Bangkok Sukhumvit 4 in the provided sources.,Thailand,Bangkok 10110,https://th.linkedin.com/in/piyada-anyoo-beaudet-4453766
235,ibis Bangkok Sukhumvit 4,"41 Sukhumvit Rd, Khwaeng Khlong Toei, Khet Khlong Toei, Bangkok 10110, Thailand",No data available for the General Manager of ibis Bangkok Sukhumvit 4.,Thailand,Bangkok 10110,https://th.linkedin.com/in/boima-harris-92192870
236,Novotel Living Bangkok Sukhumvit Legacy,"12-14 Sukhumvit 29 Alley Klong Toey Nua, Bangkok 10110, Thailand",Nikolay Stoyanov,Thailand,Bangkok 10110,https://bg.linkedin.com/in/nikolay-stoyanov-4301172
237,Novotel Bangkok Sukhumvit 20,"19/9 Sukhumvit 20 Alley, Khwaeng Khlong Toei, Khlong Toei, Bangkok 10110, Thailand",Nikolay Stoyanov,Thailand,Bangkok 10110,https://bg.linkedin.com/in/nikolayestoyanov
238,Mercure Bangkok Sukhumvit 24,"5, 1 Sukhumvit Rd, Khlong Tan, Khet Khlong Toei, Bangkok 10110, Thailand",Boima Harris,Thailand,Bangkok 10110,https://th.linkedin.com/in/boima-harris-92192870
239,Ibis Bangkok Sukhumvit 24,"5, 1 Sukhumvit 24 Road, Khwaeng Khlong Tan, Khet Khlong Toei, Bangkok 10110, Thailand",Nikolay Stoyanov,Thailand,Bangkok 10110,https://bg.linkedin.com/in/nikolayestoyanov
240,Homm Sukhumvit 34 Bangkok,"40 ซอย Soi Sukhumvit 34, Khlong Tan, Khlong Toei, Bangkok 10110, Thailand",Boima Harris,Thailand,Bangkok 10110,https://th.linkedin.com/in/boima-harris-92192870
241,Novotel Bangkok Suvarnabhumi Airport,"Suvarnabhumi Airport, 999, Nong Prue, Bang Phli District, Samut Prakan 10540, Thailand",Blair Fowler,Thailand,Samut Prakan 10540,https://www.linkedin.com/in/blairfowler
242,SO/ Bangkok,"2 N Sathon Rd, Silom, Bang Rak, Bangkok 10500, Thailand",No information available on the current General Manager of SO/ Bangkok.,Thailand,Bangkok 10500,
243,ibis Styles Bangkok Silom,"289 Si Lom Rd, Silom, Bang Rak, Bangkok 10500, Thailand",No data available.,Thailand,Bangkok 10500,
244,Mercure Bangkok Surawong,"222 Surawong Rd, Si Phraya, Bang Rak, Bangkok 10500, Thailand",Patcharaporn Rattanasaenghirun,Thailand,Bangkok 10500,https://th.linkedin.com/in/patcharaporn-rattanasaenghirun-9aa826184
245,Banyan Tree Bangkok,"Located in: Thai Wah Plaza Co.,LTD, 21/100 S Sathon Rd, Thung Maha Mek, Sathon, Bangkok 10120, Thailand",Eddy See,Thailand,Bangkok 10120,https://sg.linkedin.com/in/eddy-see-a41925128
246,Pullman Bangkok Hotel G,"188 Si Lom Rd, Khwaeng Suriya Wong, Khet Bang Rak, Bangkok 10500, Thailand",Marie Bertrand,Thailand,Bangkok 10500,https://fr.linkedin.com/in/marieevbertrand
247,ibis Bangkok Sathorn,"Ngam Duphli Alley, Khwaeng Thung Maha Mek, Khet Sathon, Bangkok 10120, Thailand",,Thailand,Bangkok 10120,
248,ibis Styles Bangkok Sukhumvit Phra Khanong,"1122 Sukhumvit Rd, Khwaeng Phra Khanong, Khet Khlong Toei, Bangkok 10110, Thailand",,Thailand,Bangkok 10110,
249,ibis Bangkok Riverside,"27 Soi Charoen Nakhon 17, Khwaeng Bang Lamphu Lang, Khet Khlong San, Bangkok 10600, Thailand",Vinod Singh Negi,Thailand,Bangkok 10600,https://th.linkedin.com/in/vinod-singh-negi-1a475024
250,ibis Styles Bangkok Sukhumvit 50,"2026, 11 Sukhumvit 50 Aly, Khwaeng Phra Khanong, Khlong Toei, Bangkok 10260, Thailand",,Thailand,Bangkok 10260,
251,Novotel Bangkok Bangna,"333 Srinagarindra Rd, Khwaeng Nong Bon, Khet Prawet, Bangkok 10250, Thailand",No data available.,Thailand,Bangkok 10250,
252,NOVOTEL KOH SI CHANG,"333 Tha Thewawong, Ko Sichang District, Chon Buri 20120, Thailand",No data available.,Thailand,Chon Buri 20120,
253,Novotel Marina Sriracha,"339 Jerm Jom Phon Road, Amphoe Si Racha, Chon Buri 20110, Thailand",,Thailand,Chon Buri 20110,
254,Pullman Pattaya Hotel G,"445 Soi Saranchon, Muang Pattaya, Bang Lamung District, Chon Buri 20150, Thailand",No data available.,Thailand,Chon Buri 20150,
255,ibis Pattaya,"463, Nhongprue, 79, Pattaya City, Bang Lamung District, Chang Wat Chon Buri 20150, Thailand",No information is provided about the General Manager of ibis Pattaya in the search results.,Thailand,Chang Wat Chon Buri 20150,https://th.linkedin.com/in/pablo-lopez-1981mcnchee
256,Mercure Pattaya Ocean Resort,"463, Nhongprue, 100 Pattaya Soi 2, Pattaya City, Bang Lamung District, Chang Wat Chon Buri 20150, Thailand",Jack Work,Thailand,Chang Wat Chon Buri 20150,https://www.linkedin.com/in/jack-work-02770a18
257,Veranda Resort Pattaya - MGallery,"211 Moo 1, Muang Pattaya, Sattahip District, Chon Buri 20250, Thailand",Preeyaporn Thongkum,Thailand,Chon Buri 20250,https://th.linkedin.com/in/pitchayaporn-thongkum-aa8219175
258,Mövenpick Siam Na Jomtien Pattaya,"55, Na, Sukhumvit Rd, Tambon Na Chom Thian, Sattahip District, Chon Buri 20250, Thailand",No information available.,Thailand,Chon Buri 20250,
259,SO/ Sofitel Hua Hin,"115, Tambol Bangkao, Bang Kao, Hua Hin, Chang Wat Phetchaburi 76120, Thailand",No updated data is provided in the search results regarding the General Manager of SO/ Sofitel Hua Hin.,Thailand,Chang Wat Phetchaburi 76120,
260,Novotel Rayong Star Convention Centre,"109 Sukhumvit Rd, Tha Pradu, Mueang Rayong District, Rayong 21000, Thailand",Jirachot Chanjindachot,Thailand,Rayong 21000,
261,Novotel Rayong Rim Pae Resort,"4, 5 ถนน เพ-แกลง-กร่ำ, Chakphong, Klaeng District, Rayong 21190, Thailand",,Thailand,Rayong 21190,
262,Mercure Rayong Lomtalay Villas & Resort,"289, Kram, Klaeng District, Chang Wat Rayong 21190, Thailand",No data available.,Thailand,Chang Wat Rayong 21190,
263,Mövenpick Asara Resort & Spa Hua Hin,"Amphur, 53 Hua Hin 5 Alley, Hua Hin, Hua Hin District, Prachuap Khiri Khan 77110, Thailand",No information is available on the general manager of Mövenpick Asara Resort & Spa Hua Hin in the provided sources.,Thailand,Prachuap Khiri Khan 77110,https://th.linkedin.com/in/sven-j-walter-2978691a
264,V Villas Hua Hin - MGallery,"63, 39 Phet Kasem Rd, Tambon Nong Kae, Hua Hin District, Prachuap Khiri Khan 77110, Thailand",,Thailand,Prachuap Khiri Khan 77110,
265,ibis Hua Hin,"Phet Kasem Rd, Hua Hin, Hua Hin District, Chang Wat Prachuap Khiri Khan 77110, Thailand",No data available.,Thailand,Chang Wat Prachuap Khiri Khan 77110,
266,Veranda High Resort Chiang Mai - MGallery,"192, Ban Pong, Mueang Chiang Mai District, Chiang Mai 50230, Thailand",No data available for the General Manager of Veranda High Resort Chiang Mai - MGallery.,Thailand,Chiang Mai 50230,https://mv.linkedin.com/in/christoph-leonhard-6944a6131
267,Novotel Chiangmai Nimman Journeyhub,"7, 77 หมู่ที่ 2 Huay Kaew Rd, Chang Phueak, Mueang Chiang Mai District, Chiang Mai 50300, Thailand",No data available.,Thailand,Chiang Mai 50300,
268,ibis Chiang Mai Nimman Journeyhub,"7 17 Huay Kaew Rd, Tambon Chang Phueak, Mueang Chiang Mai District, Chiang Mai 50300, Thailand",No data available.,Thailand,Chiang Mai 50300,
269,ibis Styles Chiang Mai,"7, Kanklong, 9, Tambon Chang Phueak, Mueang Chiang Mai District, Chiang Mai 50300, Thailand",Sirisook Moore,Thailand,Chiang Mai 50300,https://th.linkedin.com/in/sirisook-moore-0a217590
270,Mercure Koh Chang Hideaway,"111, 1, Koh Chang Tai, Ko Chang District, Trat 23170, Thailand",,Thailand,Trat 23170,
271,Garrya Tongsai Bay Samui,"84, Tambon Bo Put, Amphoe Ko Samui, Surat Thani 84320, Thailand",Manuel,Thailand,Surat Thani 84320,https://th.linkedin.com/in/manuel-fafian-64470346
272,ibis Samui Bophut,"Bophut Beach, Ko Samui District, Surat Thani 84320, Thailand",No information available.,Thailand,Surat Thani 84320,
273,Mercure Samui Chaweng Tana,"17/135 หมู่ที่ 3 ถนน เลียบหาดเฉวง, Ko Samui District, Surat Thani 84320, Thailand",Adams Nitah.,Thailand,Surat Thani 84320,https://ca.linkedin.com/in/steven-nitah-14082530
274,Banyan Tree Samui,"99, 9, Maret, Surat Thani 84310, Thailand",Remko Kroesen,Thailand,Surat Thani 84310,https://th.linkedin.com/in/remko-kroesen-3abba86
275,Pullman Khao Lak Resort,"46 109 Moo 2 Soi 46 Laem Son Bangmuang, Phang Nga, 82190, Thailand",No updated data available.,Thailand,82190,
276,Grand Mercure Khao Lak Bangsak,"71 หมู่ 7 Bang Muang, Takua Pa District, Phang Nga 82190, Thailand",Matt.,Thailand,Phang Nga 82190,https://th.linkedin.com/in/mathyouu
277,Banyan Tree Krabi,"279 Tambon Nongtalay Amphoe Muang Krabi 81180, Thailand",Dawadee Songprasert.,Thailand,279 Tambon Nongtalay Amphoe Muang Krabi 81180,
278,Sofitel Krabi Phokeethra Golf & Spa Resort,"200 Moo 3 T.Nongtalay, Krabi, 81180, Thailand",Siripun Petchai,Thailand,81180,https://th.linkedin.com/in/siripun-chailai-ponamas-40190419a
279,ibis Styles Krabi Ao Nang,"725, Ao Nang, Krabi, 81180, Thailand",No specific name is provided in the search results for the General Manager of ibis Styles Krabi Ao Nang.,Thailand,81180,https://th.linkedin.com/in/wanwisa-banjongsiri-ba8015242
280,Mövenpick Resort Khao Yai,"Nakornratch, T Wangsai A, Pak Chong District, Nakhon Ratchasima 30130, Thailand",No information is available about the General Manager of Mövenpick Resort Khao Yai.,Thailand,Nakhon Ratchasima 30130,
281,Pullman Khon Kaen Raja Orchid,"9, 9 Prachasumran Road, Nai Mueang, Muang, Khon Kaen 40000, Thailand",Stanley Chan,Thailand,Khon Kaen 40000,https://th.linkedin.com/in/stanley-chan-39a14710
282,Novotel Bangkok Future Park Rangsit,"114 Phahonyothin Rd, Prachathipat, Thanyaburi District, Pathum Thani 12130, Thailand",,Thailand,Pathum Thani 12130,
283,ibis Bangkok IMPACT,"93 Popular Road, Banmai Subdistrict, NONTHABURI, 11120, Thailand",Vinod Singh Negi,Thailand,11120,https://th.linkedin.com/in/vinod-singh-negi-1a475024
284,Novotel Bangkok Impact,"94 Popular Rd, Tambon Ban Mai, Pak Kret District, Nonthaburi 11120, Thailand",,Thailand,Nonthaburi 11120,
285,ibis Styles Bangkok Ratchada,"212 Ratchadaphisek Rd, Khwaeng Huai Khwang, Khet Huai Khwang, Bangkok 10310, Thailand",No data available.,Thailand,Bangkok 10310,
286,Swissôtel Bangkok Ratchada,"204 Ratchadaphisek Rd, Huai Khwang, Khet Huai Khwang, Bangkok 10320, Thailand",,Thailand,Bangkok 10320,
287,Pullman Bangkok King Power,"8, 2 Rang Nam Alley, Khwaeng Thanon Phaya Thai, Khet Ratchathewi, Bangkok 10400, Thailand",Luc Bollen.,Thailand,Bangkok 10400,https://hk.linkedin.com/in/ljjbollen
288,Mercure Bangkok Makkasan,"1599 Kamphaeng Phet 7 Rd, Khwaeng Makkasan, Khet Ratchathewi, Bangkok 10400, Thailand",,Thailand,Bangkok 10400,
289,Grand Mercure Bangkok Atrium,"1880 New Petchaburi Rd, Bangkapi, Khet Huai Khwang, Bangkok 10310, Thailand",Orawan Vicharnarong,Thailand,Bangkok 10310,https://th.linkedin.com/in/orawan-vicharnarong-8550a9123
290,Novotel Bangkok Platinum Pratunam,"220 Phetchaburi Rd, Khwaeng Thanon Phetchaburi, Khet Ratchathewi, Bangkok 10400, Thailand",,Thailand,Bangkok 10400,
291,Mövenpick BDMS Wellness Resort Bangkok,"2 Witthayu Rd, Lumphini, Pathum Wan, Bangkok 10330, Thailand",No data available.,Thailand,Bangkok 10330,
292,VIE Hotel Bangkok - MGallery,"117 39, 40 Phaya Thai Rd, Khwaeng Thanon Phetchaburi, Khet Ratchathewi, Bangkok 10400, Thailand",Nicolas Peth,Thailand,Bangkok 10400,https://th.linkedin.com/in/nicpeth
293,Mercure Bangkok Sukhumvit 11,"18 Soi Sukhumvit 11, Khwaeng Khlong Toei Nuea, Watthana, Bangkok 10110, Thailand",Nikolay Stoyanov,Thailand,Bangkok 10110,https://bg.linkedin.com/in/niksto
294,Mövenpick Hotel Sukhumvit 15 Bangkok,"47 Sukhumvit 15, Khwaeng Khlong Toei Nuea, Watthana, Bangkok 10110, Thailand",Jay Sudhakaran,Thailand,Bangkok 10110,https://th.linkedin.com/in/jay-sudhakaran-713a8519
295,Grand Mercure Bangkok Asoke Residence,"50, 5 Sukhumvit 19 Alley, Khwaeng Khlong Toei Nuea, Watthana, Bangkok 10110, Thailand",Jon Warmington,Thailand,Bangkok 10110,https://th.linkedin.com/in/jon-warmington-9ab53211
296,Novotel Bangkok Ploenchit Sukhumvit,"566 Phloen Chit Rd, Khwaeng Lumphini, Pathum Wan, Bangkok 10330, Thailand",,Thailand,Bangkok 10330,
297,Mercure Bangkok Siam,"927 Rama I Rd, Wangmai, Pathum Wan, Bangkok 10330, Thailand",Nikolay Stoyanov,Thailand,Bangkok 10330,https://bg.linkedin.com/in/nikolay-stoyanov-4301172
298,ibis Bangkok Siam,"927 Rama I Rd, Wangmai, Pathum Wan, Bangkok 10330, Thailand",No information available.,Thailand,Bangkok 10330,
299,Novotel Bangkok on Siam Square,"392, 44 Siam Square Soi 6, Khwaeng Pathum Wan, Pathum Wan, Bangkok 10330, Thailand",Nicolas Peth,Thailand,Bangkok 10330,https://th.linkedin.com/in/nicpeth
300,Sofitel Bangkok Sukhumvit,"189 Sukhumvit Rd, Khwaeng Khlong Toei Nuea, Watthana, Bangkok 10110, Thailand",Pana,Thailand,Bangkok 10110,https://th.linkedin.com/in/pana-ungkap-5b1731123
301,TRIBE Living Bangkok Sukhumvit 39,"122 Soi Sukhumvit 39, Khwaeng Khlong Tan Nuea, Watthana, Bangkok 10110, Thailand",Chef Natra,Thailand,Bangkok 10110,https://id.linkedin.com/in/donald-tampubolon-90321a296
302,Novotel Suites Bangkok Sukhumvit 39,"5/9 Soi Phromsri, Soi Sukhumvit 39, Klongton-nua, Watthana, Bangkok 10110, Thailand",Boima Harris,Thailand,Bangkok 10110,https://th.linkedin.com/in/boima-harris-92192870
303,Novotel Bangkok Sukhumvit 4,"27 Sukhumvit 4 Alley, Khwaeng Khlong Toei, Khet Khlong Toei, Bangkok 10110, Thailand",Denis (no last name provided).,Thailand,Bangkok 10110,https://in.linkedin.com/in/denis-no-name-446184258
304,ibis Styles Bangkok Sukhumvit 4,"27 Sukhumvit 4 Alley, Khwaeng Khlong Toei, Khet Khlong Toei, Bangkok 10110, Thailand",No data available for the General Manager of ibis Styles Bangkok Sukhumvit 4.,Thailand,Bangkok 10110,https://th.linkedin.com/in/piyada-anyoo-beaudet-4453766
305,ibis Bangkok Sukhumvit 4,"41 Sukhumvit Rd, Khwaeng Khlong Toei, Khet Khlong Toei, Bangkok 10110, Thailand",No data available for the General Manager of ibis Bangkok Sukhumvit 4.,Thailand,Bangkok 10110,https://th.linkedin.com/in/boima-harris-92192870
306,Novotel Living Bangkok Sukhumvit Legacy,"12-14 Sukhumvit 29 Alley Klong Toey Nua, Bangkok 10110, Thailand",Kanta Hanvesakul,Thailand,Bangkok 10110,https://th.linkedin.com/in/kanta-hanvesakul-a222241b
307,Novotel Bangkok Sukhumvit 20,"19/9 Sukhumvit 20 Alley, Khwaeng Khlong Toei, Khlong Toei, Bangkok 10110, Thailand",Nikolay Stoyanov,Thailand,Bangkok 10110,https://bg.linkedin.com/in/nikolayestoyanov
308,Mercure Bangkok Sukhumvit 24,"5, 1 Sukhumvit Rd, Khlong Tan, Khet Khlong Toei, Bangkok 10110, Thailand",Boima Harris,Thailand,Bangkok 10110,https://th.linkedin.com/in/boima-harris-92192870
309,Ibis Bangkok Sukhumvit 24,"5, 1 Sukhumvit 24 Road, Khwaeng Khlong Tan, Khet Khlong Toei, Bangkok 10110, Thailand",No data available for the General Manager of Ibis Bangkok Sukhumvit 24.,Thailand,Bangkok 10110,https://th.linkedin.com/in/boima-harris-92192870
310,Homm Sukhumvit 34 Bangkok,"40 ซอย Soi Sukhumvit 34, Khlong Tan, Khlong Toei, Bangkok 10110, Thailand",Boima Harris,Thailand,Bangkok 10110,https://th.linkedin.com/in/boima-harris-92192870
311,Novotel Bangkok Suvarnabhumi Airport,"Suvarnabhumi Airport, 999, Nong Prue, Bang Phli District, Samut Prakan 10540, Thailand",No information is available about the current General Manager of Novotel Bangkok Suvarnabhumi Airport.,Thailand,Samut Prakan 10540,https://th.linkedin.com/in/christophe-geoffroy-80033289
312,SO/ Bangkok,"2 N Sathon Rd, Silom, Bang Rak, Bangkok 10500, Thailand",Khun Kamala Sukosol,Thailand,Bangkok 10500,https://th.linkedin.com/in/marisa-sukosol-nunbhakdi-4130a720
313,ibis Styles Bangkok Silom,"289 Si Lom Rd, Silom, Bang Rak, Bangkok 10500, Thailand",Vinod Singh Negi,Thailand,Bangkok 10500,https://th.linkedin.com/in/vinod-singh-negi-1a475024
314,Mercure Bangkok Surawong,"222 Surawong Rd, Si Phraya, Bang Rak, Bangkok 10500, Thailand",Benjamin Lehmann,Thailand,Bangkok 10500,https://kh.linkedin.com/in/benjaminlehmann
315,Banyan Tree Bangkok,"Located in: Thai Wah Plaza Co.,LTD, 21/100 S Sathon Rd, Thung Maha Mek, Sathon, Bangkok 10120, Thailand",Eddy See,Thailand,Bangkok 10120,https://sg.linkedin.com/in/eddy-see-a41925128
316,Pullman Bangkok Hotel G,"188 Si Lom Rd, Khwaeng Suriya Wong, Khet Bang Rak, Bangkok 10500, Thailand",Marie Bertrand,Thailand,Bangkok 10500,https://fr.linkedin.com/in/marieevbertrand
317,ibis Bangkok Sathorn,"Ngam Duphli Alley, Khwaeng Thung Maha Mek, Khet Sathon, Bangkok 10120, Thailand",Vinod Singh Negi.,Thailand,Bangkok 10120,https://th.linkedin.com/in/vinod-singh-negi-1a475024
318,ibis Styles Bangkok Sukhumvit Phra Khanong,"1122 Sukhumvit Rd, Khwaeng Phra Khanong, Khet Khlong Toei, Bangkok 10110, Thailand",,Thailand,Bangkok 10110,
319,ibis Bangkok Riverside,"27 Soi Charoen Nakhon 17, Khwaeng Bang Lamphu Lang, Khet Khlong San, Bangkok 10600, Thailand",Vinod Singh Negi,Thailand,Bangkok 10600,https://th.linkedin.com/in/vinod-singh-negi-1a475024
320,ibis Styles Bangkok Sukhumvit 50,"2026, 11 Sukhumvit 50 Aly, Khwaeng Phra Khanong, Khlong Toei, Bangkok 10260, Thailand",No information is provided about the General Manager of ibis Styles Bangkok Sukhumvit 50 in the search results.,Thailand,Bangkok 10260,https://th.linkedin.com/in/kannika-mahapurksapong-1016943b
321,Novotel Bangkok Bangna,"333 Srinagarindra Rd, Khwaeng Nong Bon, Khet Prawet, Bangkok 10250, Thailand",,Thailand,Bangkok 10250,
322,NOVOTEL KOH SI CHANG,"333 Tha Thewawong, Ko Sichang District, Chon Buri 20120, Thailand",No data available.,Thailand,Chon Buri 20120,
323,Novotel Marina Sriracha,"339 Jerm Jom Phon Road, Amphoe Si Racha, Chon Buri 20110, Thailand","No information is available about the General Manager of Novotel Marina Sriracha in the provided sources. 

- **Blank**",Thailand,Chon Buri 20110,https://th.linkedin.com/in/vincent-olivier-445b7a31
324,Pullman Pattaya Hotel G,"445 Soi Saranchon, Muang Pattaya, Bang Lamung District, Chon Buri 20150, Thailand",Othmane Amrani,Thailand,Chon Buri 20150,https://sg.linkedin.com/in/othmane-amrani-485a2036
325,ibis Pattaya,"463, Nhongprue, 79, Pattaya City, Bang Lamung District, Chang Wat Chon Buri 20150, Thailand",No information is available about the General Manager of ibis Pattaya in the provided sources.,Thailand,Chang Wat Chon Buri 20150,https://th.linkedin.com/in/pablo-lopez-1981mcnchee
326,Mercure Pattaya Ocean Resort,"463, Nhongprue, 100 Pattaya Soi 2, Pattaya City, Bang Lamung District, Chang Wat Chon Buri 20150, Thailand",No information is available about the General Manager of Mercure Pattaya Ocean Resort in the provided sources.,Thailand,Chang Wat Chon Buri 20150,https://th.linkedin.com/in/pablo-lopez-1981mcnchee
327,Veranda Resort Pattaya - MGallery,"211 Moo 1, Muang Pattaya, Sattahip District, Chon Buri 20250, Thailand",Preeyaporn Thongkum,Thailand,Chon Buri 20250,https://th.linkedin.com/in/preeyaporn-wongmoh-915843198
328,Mövenpick Siam Na Jomtien Pattaya,"55, Na, Sukhumvit Rd, Tambon Na Chom Thian, Sattahip District, Chon Buri 20250, Thailand",No information is available about the General Manager of Mövenpick Siam Na Jomtien Pattaya in the provided sources.,Thailand,Chon Buri 20250,
329,SO/ Sofitel Hua Hin,"115, Tambol Bangkao, Bang Kao, Hua Hin, Chang Wat Phetchaburi 76120, Thailand","No updated data is provided in the sources regarding the General Manager of SO/ Sofitel Hua Hin. 

- **Blank**",Thailand,Chang Wat Phetchaburi 76120,
330,Novotel Rayong Star Convention Centre,"109 Sukhumvit Rd, Tha Pradu, Mueang Rayong District, Rayong 21000, Thailand",Jirachot Chanjindachot,Thailand,Rayong 21000,
331,Novotel Rayong Rim Pae Resort,"4, 5 ถนน เพ-แกลง-กร่ำ, Chakphong, Klaeng District, Rayong 21190, Thailand",,Thailand,Rayong 21190,
332,Mercure Rayong Lomtalay Villas & Resort,"289, Kram, Klaeng District, Chang Wat Rayong 21190, Thailand",,Thailand,Chang Wat Rayong 21190,
333,Mövenpick Asara Resort & Spa Hua Hin,"Amphur, 53 Hua Hin 5 Alley, Hua Hin, Hua Hin District, Prachuap Khiri Khan 77110, Thailand",Orlando,Thailand,Prachuap Khiri Khan 77110,
334,V Villas Hua Hin - MGallery,"63, 39 Phet Kasem Rd, Tambon Nong Kae, Hua Hin District, Prachuap Khiri Khan 77110, Thailand",No data available.,Thailand,Prachuap Khiri Khan 77110,
335,ibis Hua Hin,"Phet Kasem Rd, Hua Hin, Hua Hin District, Chang Wat Prachuap Khiri Khan 77110, Thailand",No information available.,Thailand,Chang Wat Prachuap Khiri Khan 77110,
336,Veranda High Resort Chiang Mai - MGallery,"192, Ban Pong, Mueang Chiang Mai District, Chiang Mai 50230, Thailand",No data available.,Thailand,Chiang Mai 50230,
337,Novotel Chiangmai Nimman Journeyhub,"7, 77 หมู่ที่ 2 Huay Kaew Rd, Chang Phueak, Mueang Chiang Mai District, Chiang Mai 50300, Thailand",Sirisook Moore,Thailand,Chiang Mai 50300,https://th.linkedin.com/in/sirisook-moore-0a217590
338,ibis Chiang Mai Nimman Journeyhub,"7 17 Huay Kaew Rd, Tambon Chang Phueak, Mueang Chiang Mai District, Chiang Mai 50300, Thailand",No data available.,Thailand,Chiang Mai 50300,
339,ibis Styles Chiang Mai,"7, Kanklong, 9, Tambon Chang Phueak, Mueang Chiang Mai District, Chiang Mai 50300, Thailand",,Thailand,Chiang Mai 50300,
340,Mercure Koh Chang Hideaway,"111, 1, Koh Chang Tai, Ko Chang District, Trat 23170, Thailand",No data available.,Thailand,Trat 23170,
341,Garrya Tongsai Bay Samui,"84, Tambon Bo Put, Amphoe Ko Samui, Surat Thani 84320, Thailand",Manuel Rodriguez,Thailand,Surat Thani 84320,https://www.linkedin.com/in/manuel-rodriguez-52833b3
342,ibis Samui Bophut,"Bophut Beach, Ko Samui District, Surat Thani 84320, Thailand",No information available.,Thailand,Surat Thani 84320,
343,Mercure Samui Chaweng Tana,"17/135 หมู่ที่ 3 ถนน เลียบหาดเฉวง, Ko Samui District, Surat Thani 84320, Thailand",Adams Nitah.,Thailand,Surat Thani 84320,https://ca.linkedin.com/in/steven-nitah-14082530
344,Banyan Tree Samui,"99, 9, Maret, Surat Thani 84310, Thailand",Remko Kroesen,Thailand,Surat Thani 84310,https://th.linkedin.com/in/remko-kroesen-3abba86
345,Pullman Khao Lak Resort,"46 109 Moo 2 Soi 46 Laem Son Bangmuang, Phang Nga, 82190, Thailand",,Thailand,82190,
346,Grand Mercure Khao Lak Bangsak,"71 หมู่ 7 Bang Muang, Takua Pa District, Phang Nga 82190, Thailand","No specific name is provided in the search results for the General Manager of Grand Mercure Khao Lak Bangsak. 

- **Blank**",Thailand,Phang Nga 82190,https://th.linkedin.com/in/lance-crampton-a4864017
347,Banyan Tree Krabi,"279 Tambon Nongtalay Amphoe Muang Krabi 81180, Thailand","Dawadee Songprasert is not the General Manager of Banyan Tree Krabi. The most updated data does not provide the name of the current General Manager of Banyan Tree Krabi.

**Blank**",Thailand,279 Tambon Nongtalay Amphoe Muang Krabi 81180,https://th.linkedin.com/in/haruethai-maneerat-92616555
348,Sofitel Krabi Phokeethra Golf & Spa Resort,"200 Moo 3 T.Nongtalay, Krabi, 81180, Thailand",Siripun Petchai,Thailand,81180,https://th.linkedin.com/in/siripun-chailai-ponamas-40190419a
349,ibis Styles Krabi Ao Nang,"725, Ao Nang, Krabi, 81180, Thailand","No specific information about the General Manager's name is provided in the search results. 

- **Blank**",Thailand,81180,https://th.linkedin.com/in/thaninrath-wonggotwarin-944486a3
350,Pullman Phuket Arcadia Naithon Beach,"22, Naithon Beach, 2, Tambon Sa Khu, Amphur, Phuket 83110, Thailand",Brett Wilson,Thailand,Phuket 83110,https://www.linkedin.com/in/bjwilson
351,Banyan Tree Phuket,"33 Cherngtalay 33/27 ถนน Thalang District, Phuket 83110, Thailand","No specific name is mentioned in the provided sources for the General Manager of Banyan Tree Phuket. 

- **Blank**",Thailand,Phuket 83110,https://th.linkedin.com/in/michal-zitek-09a3a929
352,Mövenpick Phuket Bangtao,"35 Cherngtalay, Tambon Choeng Thale, Thalang District, Phuket 83110, Thailand",Michael Wenk,Thailand,Phuket 83110,https://www.linkedin.com/in/michaelscottwenkga
353,Homm Suites Laguna,"หมู่ที่ 4 61 ถนน ศรีสุนทร Choeng Thale, Thalang District, Phuket 83110, Thailand","No specific information is provided about the general manager of Homewood Suites by Hilton Aliso Viejo - Laguna Beach in the search results. Therefore, the response is blank.",Thailand,Phuket 83110,https://www.linkedin.com/in/martha-marquez-87883234
354,Cassia Phuket,"64, Srisoonthorn Road, Tambon Choeng Thale, Thalang District, Phuket 83110, Thailand",Brett Wilson,Thailand,Phuket 83110,https://www.linkedin.com/in/bjwilson
355,Novotel Phuket Kamala Beach,"118, 16, Kamala, Kathu District, Phuket 83150, Thailand",Pataraseth Pokinbenjarasamee,Thailand,Phuket 83150,https://th.linkedin.com/in/pataraseth-yu-pokinbenjarasamee-849aa722
356,Andaman Beach Hotel Phuket - Handwritten Collection,"17/1-3 Soi Prabaramee 4, Pa Tong, Amphoe Kathu, Phuket 83150, Thailand",Yap Jtwen,Thailand,Phuket 83150,
357,Novotel Phuket Resort,"282 Phrabaramee Rd, Tambon Patong, Kathu District, Phuket 83150, Thailand",Bilal Chamsine,Thailand,Phuket 83150,https://id.linkedin.com/in/bilal-chamsine-33b15720
358,Mövenpick Myth Hotel Patong Phuket,"27/9 200 Rat Uthit Song Roi Pi Rd, Kathu District, Phuket 83150, Thailand",Alberto J. Lugo-Vina,Thailand,Phuket 83150,https://vn.linkedin.com/in/alberto-j-lugo-vina-mba-65898721
359,ibis Phuket Patong,"10 Chalermphrakiat Road, Pa Tong, Amphoe Kathu, Phuket 83150, Thailand",No information is provided about the current General Manager of ibis Phuket Patong in the given sources.,Thailand,Phuket 83150,
360,Mövenpick Resort Khao Yai,"Nakornratch, T Wangsai A, Pak Chong District, Nakhon Ratchasima 30130, Thailand",No data available.,Thailand,Nakhon Ratchasima 30130,
361,Pullman Khon Kaen Raja Orchid,"9, 9 Prachasumran Road, Nai Mueang, Muang, Khon Kaen 40000, Thailand",Stanley Chan,Thailand,Khon Kaen 40000,https://th.linkedin.com/in/stanley-chan-39a14710
362,Novotel Bangkok Future Park Rangsit,"114 Phahonyothin Rd, Prachathipat, Thanyaburi District, Pathum Thani 12130, Thailand",,Thailand,Pathum Thani 12130,
363,ibis Bangkok IMPACT,"93 Popular Road, Banmai Subdistrict, NONTHABURI, 11120, Thailand",Vinod Singh Negi,Thailand,11120,https://th.linkedin.com/in/vinod-singh-negi-1a475024
364,Novotel Bangkok Impact,"94 Popular Rd, Tambon Ban Mai, Pak Kret District, Nonthaburi 11120, Thailand",No data available.,Thailand,Nonthaburi 11120,
365,ibis Styles Bangkok Ratchada,"212 Ratchadaphisek Rd, Khwaeng Huai Khwang, Khet Huai Khwang, Bangkok 10310, Thailand",,Thailand,Bangkok 10310,
366,Swissôtel Bangkok Ratchada,"204 Ratchadaphisek Rd, Huai Khwang, Khet Huai Khwang, Bangkok 10320, Thailand",,Thailand,Bangkok 10320,
367,Pullman Bangkok King Power,"8, 2 Rang Nam Alley, Khwaeng Thanon Phaya Thai, Khet Ratchathewi, Bangkok 10400, Thailand",No data available.,Thailand,Bangkok 10400,
368,Mercure Bangkok Makkasan,"1599 Kamphaeng Phet 7 Rd, Khwaeng Makkasan, Khet Ratchathewi, Bangkok 10400, Thailand",,Thailand,Bangkok 10400,
369,Grand Mercure Bangkok Atrium,"1880 New Petchaburi Rd, Bangkapi, Khet Huai Khwang, Bangkok 10310, Thailand","No specific name is provided in the search results for the General Manager of Grand Mercure Bangkok Atrium. 

- **Blank**",Thailand,Bangkok 10310,https://th.linkedin.com/in/jon-warmington-9ab53211
370,Novotel Bangkok Platinum Pratunam,"220 Phetchaburi Rd, Khwaeng Thanon Phetchaburi, Khet Ratchathewi, Bangkok 10400, Thailand","No information is provided in the search results regarding the General Manager's name at Novotel Bangkok Platinum Pratunam. 

- **Blank**",Thailand,Bangkok 10400,https://th.linkedin.com/in/cindydelhomel
371,Mövenpick BDMS Wellness Resort Bangkok,"2 Witthayu Rd, Lumphini, Pathum Wan, Bangkok 10330, Thailand",Tarin Luechaijam,Thailand,Bangkok 10330,https://th.linkedin.com/in/tarin-luechaikam-123b51293
372,VIE Hotel Bangkok - MGallery,"117 39, 40 Phaya Thai Rd, Khwaeng Thanon Phetchaburi, Khet Ratchathewi, Bangkok 10400, Thailand",Nicolas Peth,Thailand,Bangkok 10400,https://th.linkedin.com/in/nicpeth
373,Mercure Bangkok Sukhumvit 11,"18 Soi Sukhumvit 11, Khwaeng Khlong Toei Nuea, Watthana, Bangkok 10110, Thailand",Nikolay Stoyanov,Thailand,Bangkok 10110,https://bg.linkedin.com/in/niksto
374,Mövenpick Hotel Sukhumvit 15 Bangkok,"47 Sukhumvit 15, Khwaeng Khlong Toei Nuea, Watthana, Bangkok 10110, Thailand",Jay Sudhakaran,Thailand,Bangkok 10110,https://th.linkedin.com/in/jay-sudhakaran-713a8519
375,Grand Mercure Bangkok Asoke Residence,"50, 5 Sukhumvit 19 Alley, Khwaeng Khlong Toei Nuea, Watthana, Bangkok 10110, Thailand",Jon Warmington,Thailand,Bangkok 10110,https://th.linkedin.com/in/jon-warmington-9ab53211
376,Novotel Bangkok Ploenchit Sukhumvit,"566 Phloen Chit Rd, Khwaeng Lumphini, Pathum Wan, Bangkok 10330, Thailand",No information is provided about the current General Manager of Novotel Bangkok Ploenchit Sukhumvit in the search results.,Thailand,Bangkok 10330,https://th.linkedin.com/in/richard-grandis-377a7a36
377,Mercure Bangkok Siam,"927 Rama I Rd, Wangmai, Pathum Wan, Bangkok 10330, Thailand",Nikolay Stoyanov,Thailand,Bangkok 10330,https://bg.linkedin.com/in/nikolayestoyanov
378,ibis Bangkok Siam,"927 Rama I Rd, Wangmai, Pathum Wan, Bangkok 10330, Thailand",No response available.,Thailand,Bangkok 10330,
379,Novotel Bangkok on Siam Square,"392, 44 Siam Square Soi 6, Khwaeng Pathum Wan, Pathum Wan, Bangkok 10330, Thailand",Gerald Hougardy,Thailand,Bangkok 10330,https://th.linkedin.com/in/gerald-hougardy-a75b97237?trk=public_post-text
380,Sofitel Bangkok Sukhumvit,"189 Sukhumvit Rd, Khwaeng Khlong Toei Nuea, Watthana, Bangkok 10110, Thailand",No data available.,Thailand,Bangkok 10110,
381,TRIBE Living Bangkok Sukhumvit 39,"122 Soi Sukhumvit 39, Khwaeng Khlong Tan Nuea, Watthana, Bangkok 10110, Thailand",No data available.,Thailand,Bangkok 10110,
382,Novotel Suites Bangkok Sukhumvit 39,"5/9 Soi Phromsri, Soi Sukhumvit 39, Klongton-nua, Watthana, Bangkok 10110, Thailand",Boima Harris,Thailand,Bangkok 10110,https://th.linkedin.com/in/boima-harris-92192870
383,Novotel Bangkok Sukhumvit 4,"27 Sukhumvit 4 Alley, Khwaeng Khlong Toei, Khet Khlong Toei, Bangkok 10110, Thailand",Denis.,Thailand,Bangkok 10110,https://th.linkedin.com/in/cryptocannabis
384,ibis Styles Bangkok Sukhumvit 4,"27 Sukhumvit 4 Alley, Khwaeng Khlong Toei, Khet Khlong Toei, Bangkok 10110, Thailand",No data available for the General Manager of ibis Styles Bangkok Sukhumvit 4.,Thailand,Bangkok 10110,https://th.linkedin.com/in/piyada-anyoo-beaudet-4453766
385,ibis Bangkok Sukhumvit 4,"41 Sukhumvit Rd, Khwaeng Khlong Toei, Khet Khlong Toei, Bangkok 10110, Thailand",Vinod Singh Negi,Thailand,Bangkok 10110,https://th.linkedin.com/in/vinod-singh-negi-1a475024
386,Novotel Living Bangkok Sukhumvit Legacy,"12-14 Sukhumvit 29 Alley Klong Toey Nua, Bangkok 10110, Thailand",Boima Harris,Thailand,Bangkok 10110,https://th.linkedin.com/in/boima-harris-92192870
387,Novotel Bangkok Sukhumvit 20,"19/9 Sukhumvit 20 Alley, Khwaeng Khlong Toei, Khlong Toei, Bangkok 10110, Thailand",Nikolay Stoyanov,Thailand,Bangkok 10110,https://bg.linkedin.com/in/nikolayestoyanov
388,Mercure Bangkok Sukhumvit 24,"5, 1 Sukhumvit Rd, Khlong Tan, Khet Khlong Toei, Bangkok 10110, Thailand",Nikolay Stoyanov,Thailand,Bangkok 10110,https://bg.linkedin.com/in/nikolayestoyanov
389,Ibis Bangkok Sukhumvit 24,"5, 1 Sukhumvit 24 Road, Khwaeng Khlong Tan, Khet Khlong Toei, Bangkok 10110, Thailand",,Thailand,Bangkok 10110,
390,Homm Sukhumvit 34 Bangkok,"40 ซอย Soi Sukhumvit 34, Khlong Tan, Khlong Toei, Bangkok 10110, Thailand",Boima Harris,Thailand,Bangkok 10110,https://th.linkedin.com/in/boima-harris-92192870
391,Novotel Bangkok Suvarnabhumi Airport,"Suvarnabhumi Airport, 999, Nong Prue, Bang Phli District, Samut Prakan 10540, Thailand",Chris,Thailand,Samut Prakan 10540,https://www.linkedin.com/in/thechrisdo
392,SO/ Bangkok,"2 N Sathon Rd, Silom, Bang Rak, Bangkok 10500, Thailand",Mark O'Sullivan,Thailand,Bangkok 10500,https://th.linkedin.com/in/mark-o-sullivan-a23b42b
393,ibis Styles Bangkok Silom,"289 Si Lom Rd, Silom, Bang Rak, Bangkok 10500, Thailand",Pattama Yoshimura.,Thailand,Bangkok 10500,https://th.linkedin.com/in/pattama-yoshimura-19b6a02b
394,Mercure Bangkok Surawong,"222 Surawong Rd, Si Phraya, Bang Rak, Bangkok 10500, Thailand",Patcharaporn Rattanasaenghirun,Thailand,Bangkok 10500,https://th.linkedin.com/in/patcharaporn-rattanasaenghirun-9aa826184
395,Banyan Tree Bangkok,"Located in: Thai Wah Plaza Co.,LTD, 21/100 S Sathon Rd, Thung Maha Mek, Sathon, Bangkok 10120, Thailand",No data available.,Thailand,Bangkok 10120,
396,Pullman Bangkok Hotel G,"188 Si Lom Rd, Khwaeng Suriya Wong, Khet Bang Rak, Bangkok 10500, Thailand",Marie Bertrand,Thailand,Bangkok 10500,https://fr.linkedin.com/in/marieevbertrand
397,ibis Bangkok Sathorn,"Ngam Duphli Alley, Khwaeng Thung Maha Mek, Khet Sathon, Bangkok 10120, Thailand",Nikolay Stoyanov,Thailand,Bangkok 10120,https://bg.linkedin.com/in/nikolayestoyanov
398,ibis Styles Bangkok Sukhumvit Phra Khanong,"1122 Sukhumvit Rd, Khwaeng Phra Khanong, Khet Khlong Toei, Bangkok 10110, Thailand",No data available.,Thailand,Bangkok 10110,
399,ibis Bangkok Riverside,"27 Soi Charoen Nakhon 17, Khwaeng Bang Lamphu Lang, Khet Khlong San, Bangkok 10600, Thailand",Vinod Singh Negi,Thailand,Bangkok 10600,https://th.linkedin.com/in/vinod-singh-negi-1a475024
400,ibis Styles Bangkok Sukhumvit 50,"2026, 11 Sukhumvit 50 Aly, Khwaeng Phra Khanong, Khlong Toei, Bangkok 10260, Thailand",No information is available about the general manager of ibis Styles Bangkok Sukhumvit 50 in the provided sources.,Thailand,Bangkok 10260,https://th.linkedin.com/in/kannika-mahapurksapong-1016943b
401,Novotel Bangkok Bangna,"333 Srinagarindra Rd, Khwaeng Nong Bon, Khet Prawet, Bangkok 10250, Thailand",No data available.,Thailand,Bangkok 10250,
402,NOVOTEL KOH SI CHANG,"333 Tha Thewawong, Ko Sichang District, Chon Buri 20120, Thailand",No data available.,Thailand,Chon Buri 20120,
403,Novotel Marina Sriracha,"339 Jerm Jom Phon Road, Amphoe Si Racha, Chon Buri 20110, Thailand",No data available.,Thailand,Chon Buri 20110,
404,Pullman Pattaya Hotel G,"445 Soi Saranchon, Muang Pattaya, Bang Lamung District, Chon Buri 20150, Thailand",No data available.,Thailand,Chon Buri 20150,
405,ibis Pattaya,"463, Nhongprue, 79, Pattaya City, Bang Lamung District, Chang Wat Chon Buri 20150, Thailand",No data available.,Thailand,Chang Wat Chon Buri 20150,
406,Mercure Pattaya Ocean Resort,"463, Nhongprue, 100 Pattaya Soi 2, Pattaya City, Bang Lamung District, Chang Wat Chon Buri 20150, Thailand",No data available.,Thailand,Chang Wat Chon Buri 20150,
407,Veranda Resort Pattaya - MGallery,"211 Moo 1, Muang Pattaya, Sattahip District, Chon Buri 20250, Thailand",Preeyaporn Thongkum,Thailand,Chon Buri 20250,https://th.linkedin.com/in/preeyaporn-wongmoh-915843198
408,Mövenpick Siam Na Jomtien Pattaya,"55, Na, Sukhumvit Rd, Tambon Na Chom Thian, Sattahip District, Chon Buri 20250, Thailand",Dmitry Chernyshev,Thailand,Chon Buri 20250,https://au.linkedin.com/in/dmitry-chernyshev
409,SO/ Sofitel Hua Hin,"115, Tambol Bangkao, Bang Kao, Hua Hin, Chang Wat Phetchaburi 76120, Thailand",No information is provided about the General Manager of SO/ Sofitel Hua Hin in the search results.,Thailand,Chang Wat Phetchaburi 76120,
410,Novotel Rayong Star Convention Centre,"109 Sukhumvit Rd, Tha Pradu, Mueang Rayong District, Rayong 21000, Thailand",Jirachot Chanjindachot,Thailand,Rayong 21000,
411,Novotel Rayong Rim Pae Resort,"4, 5 ถนน เพ-แกลง-กร่ำ, Chakphong, Klaeng District, Rayong 21190, Thailand",No data available.,Thailand,Rayong 21190,
412,Mercure Rayong Lomtalay Villas & Resort,"289, Kram, Klaeng District, Chang Wat Rayong 21190, Thailand",No data available.,Thailand,Chang Wat Rayong 21190,
413,Mövenpick Asara Resort & Spa Hua Hin,"Amphur, 53 Hua Hin 5 Alley, Hua Hin, Hua Hin District, Prachuap Khiri Khan 77110, Thailand",No information is available on the general manager of Mövenpick Asara Resort & Spa Hua Hin in the provided sources.,Thailand,Prachuap Khiri Khan 77110,https://th.linkedin.com/in/sven-j-walter-2978691a
414,V Villas Hua Hin - MGallery,"63, 39 Phet Kasem Rd, Tambon Nong Kae, Hua Hin District, Prachuap Khiri Khan 77110, Thailand",,Thailand,Prachuap Khiri Khan 77110,
415,ibis Hua Hin,"Phet Kasem Rd, Hua Hin, Hua Hin District, Chang Wat Prachuap Khiri Khan 77110, Thailand",No data available for the General Manager of ibis Hua Hin.,Thailand,Chang Wat Prachuap Khiri Khan 77110,https://th.linkedin.com/in/wipawan-sangounpan-aa5488b3
416,Veranda High Resort Chiang Mai - MGallery,"192, Ban Pong, Mueang Chiang Mai District, Chiang Mai 50230, Thailand",No data available.,Thailand,Chiang Mai 50230,
417,Novotel Chiangmai Nimman Journeyhub,"7, 77 หมู่ที่ 2 Huay Kaew Rd, Chang Phueak, Mueang Chiang Mai District, Chiang Mai 50300, Thailand",Sirisook Moore,Thailand,Chiang Mai 50300,https://th.linkedin.com/in/sirisook-moore-0a217590
418,ibis Chiang Mai Nimman Journeyhub,"7 17 Huay Kaew Rd, Tambon Chang Phueak, Mueang Chiang Mai District, Chiang Mai 50300, Thailand",No data available.,Thailand,Chiang Mai 50300,
419,ibis Styles Chiang Mai,"7, Kanklong, 9, Tambon Chang Phueak, Mueang Chiang Mai District, Chiang Mai 50300, Thailand",Sirisook Moore,Thailand,Chiang Mai 50300,https://th.linkedin.com/in/sirisook-moore-0a217590
420,Mercure Koh Chang Hideaway,"111, 1, Koh Chang Tai, Ko Chang District, Trat 23170, Thailand",No data available for Mercure Koh Chang Hideaway General Manager.,Thailand,Trat 23170,https://th.linkedin.com/in/daphne-yuan-35073476
421,Garrya Tongsai Bay Samui,"84, Tambon Bo Put, Amphoe Ko Samui, Surat Thani 84320, Thailand",Manuel,Thailand,Surat Thani 84320,https://th.linkedin.com/in/manuel-fafian-64470346
422,ibis Samui Bophut,"Bophut Beach, Ko Samui District, Surat Thani 84320, Thailand",No data available.,Thailand,Surat Thani 84320,
423,Mercure Samui Chaweng Tana,"17/135 หมู่ที่ 3 ถนน เลียบหาดเฉวง, Ko Samui District, Surat Thani 84320, Thailand",Adams Nitah.,Thailand,Surat Thani 84320,https://ca.linkedin.com/in/steven-nitah-14082530
424,Banyan Tree Samui,"99, 9, Maret, Surat Thani 84310, Thailand",Remko Kroesen,Thailand,Surat Thani 84310,https://th.linkedin.com/in/remko-kroesen-3abba86
425,Pullman Khao Lak Resort,"46 109 Moo 2 Soi 46 Laem Son Bangmuang, Phang Nga, 82190, Thailand","No information is provided in the sources about the current General Manager of Pullman Khao Lak Resort. 

- **Blank**",Thailand,82190,https://th.linkedin.com/in/maverik-m-8a88571b
426,Grand Mercure Khao Lak Bangsak,"71 หมู่ 7 Bang Muang, Takua Pa District, Phang Nga 82190, Thailand",Lance Crampton,Thailand,Phang Nga 82190,https://th.linkedin.com/in/lance-crampton-a4864017
427,Banyan Tree Krabi,"279 Tambon Nongtalay Amphoe Muang Krabi 81180, Thailand",Dao Songprasert,Thailand,279 Tambon Nongtalay Amphoe Muang Krabi 81180,
428,Sofitel Krabi Phokeethra Golf & Spa Resort,"200 Moo 3 T.Nongtalay, Krabi, 81180, Thailand",Siripun Petchai,Thailand,81180,https://th.linkedin.com/in/siripun-chailai-ponamas-40190419a
429,ibis Styles Krabi Ao Nang,"725, Ao Nang, Krabi, 81180, Thailand","No specific information about the general manager's name is provided in the search results. 

- **Response:** Blank",Thailand,81180,
430,Pullman Phuket Arcadia Naithon Beach,"22, Naithon Beach, 2, Tambon Sa Khu, Amphur, Phuket 83110, Thailand",Brett Wilson,Thailand,Phuket 83110,https://www.linkedin.com/in/bjwilson
431,Banyan Tree Phuket,"33 Cherngtalay 33/27 ถนน Thalang District, Phuket 83110, Thailand","No information is provided about the General Manager of Banyan Tree Phuket in the search results. 

- **Blank**",Thailand,Phuket 83110,https://th.linkedin.com/in/michal-zitek-09a3a929
432,Mövenpick Phuket Bangtao,"35 Cherngtalay, Tambon Choeng Thale, Thalang District, Phuket 83110, Thailand",Michael Wenk,Thailand,Phuket 83110,https://www.linkedin.com/in/michaelscottwenkga
433,Homm Suites Laguna,"หมู่ที่ 4 61 ถนน ศรีสุนทร Choeng Thale, Thalang District, Phuket 83110, Thailand",Orlando,Thailand,Phuket 83110,
434,Cassia Phuket,"64, Srisoonthorn Road, Tambon Choeng Thale, Thalang District, Phuket 83110, Thailand",Brett Wilson,Thailand,Phuket 83110,https://www.linkedin.com/in/bjwilson
435,Novotel Phuket Kamala Beach,"118, 16, Kamala, Kathu District, Phuket 83150, Thailand",Pataraseth Pokinbenjarasamee,Thailand,Phuket 83150,https://th.linkedin.com/in/pataraseth-yu-pokinbenjarasamee-849aa722
436,Andaman Beach Hotel Phuket - Handwritten Collection,"17/1-3 Soi Prabaramee 4, Pa Tong, Amphoe Kathu, Phuket 83150, Thailand",Yap Jtwen,Thailand,Phuket 83150,
437,Novotel Phuket Resort,"282 Phrabaramee Rd, Tambon Patong, Kathu District, Phuket 83150, Thailand",No response available.,Thailand,Phuket 83150,
438,Mövenpick Myth Hotel Patong Phuket,"27/9 200 Rat Uthit Song Roi Pi Rd, Kathu District, Phuket 83150, Thailand",Alberto J. Lugo-Vina,Thailand,Phuket 83150,https://vn.linkedin.com/in/alberto-j-lugo-vina-mba-65898721
439,ibis Phuket Patong,"10 Chalermphrakiat Road, Pa Tong, Amphoe Kathu, Phuket 83150, Thailand",,Thailand,Phuket 83150,
440,Novotel Phuket Vintage Park Resort,"89 Rat U Thit 200 Pee Rd, Pa Tong, Phuket 83150, Thailand",Marly,Thailand,Phuket 83150,
441,Grand Mercure Phuket Patong,"1 Soi Rat Uthit 200 Pi 2, Pa Tong, Kathu District, Phuket 83150, Thailand","No specific name is mentioned in the provided sources for the General Manager of Grand Mercure Phuket Patong. 

- **Blank**",Thailand,Phuket 83150,https://th.linkedin.com/in/jutima-jamroennam-981b803b
442,Homm Bliss Southbeach Patong,"40 Thawewong Rd, Pa Tong, Kathu District, Phuket 83150, Thailand",No data available for the General Manager of Homm Bliss Southbeach Patong.,Thailand,Phuket 83150,https://th.linkedin.com/in/malida-iamchamnan-19aa6711b
443,Avista Hideaway Phuket Patong - MGallery,"39, 9 Muen-Ngern Rd, Tambon Patong, Amphur Kathu, Phuket 83150, Thailand",Manish Pratap.,Thailand,Phuket 83150,https://th.linkedin.com/in/manishpratap
444,V Villas Phuket - MGallery,"Vichit, Moo 8 Ao, Soi Ruam Jai Ao Yon, Mueang Phuket District, Phuket 83000, Thailand",No data available.,Thailand,Phuket 83000,
445,Pullman Phuket Panwa Beach Resort,"44, 5 Sakdidesh Road, Wichit, Amphoe Mueang Phuket, Phuket 83000, Thailand",,Thailand,Phuket 83000,
446,Pullman Phuket Karon Beach Resort,"333 Patak Rd, Tambon Karon, Muang, Phuket 83100, Thailand",Ajay Sampige,Thailand,Phuket 83100,
447,Avista Grande Phuket Karon - MGallery,"38, Luang Phor Chuan Rd, Tambon Karon, Amphur Muang, Phuket 83100, Thailand",Arun Vishnu,Thailand,Phuket 83100,https://th.linkedin.com/in/arun-vishnu-60959a6a
448,Novotel Phuket Kata Avista Resort & Spa,"4, 1 Soi Lam Sai, Karon, Mueang Phuket District, Phuket 83100, Thailand",Massimo Bernardi,Thailand,Phuket 83100,https://th.linkedin.com/in/massimo-bernardi-47516a9
449,ibis Phuket Kata,"88, 8 Kata Rd, Amphur, Mueang Phuket District, Chang Wat Phuket 83100, Thailand",Ajay Sampige,Thailand,Chang Wat Phuket 83100,
450,Mövenpick Resort Khao Yai,"Nakornratch, T Wangsai A, Pak Chong District, Nakhon Ratchasima 30130, Thailand",No data available.,Thailand,Nakhon Ratchasima 30130,
451,Pullman Khon Kaen Raja Orchid,"9, 9 Prachasumran Road, Nai Mueang, Muang, Khon Kaen 40000, Thailand",Stanley Chan,Thailand,Khon Kaen 40000,https://th.linkedin.com/in/stanley-chan-39a14710
452,Novotel Bangkok Future Park Rangsit,"114 Phahonyothin Rd, Prachathipat, Thanyaburi District, Pathum Thani 12130, Thailand",No data available.,Thailand,Pathum Thani 12130,
453,ibis Bangkok IMPACT,"93 Popular Road, Banmai Subdistrict, NONTHABURI, 11120, Thailand",Patcharaporn Rattanasaenghirun,Thailand,11120,https://th.linkedin.com/in/patcharaporn-rattanasaenghirun-9aa826184
454,Novotel Bangkok Impact,"94 Popular Rd, Tambon Ban Mai, Pak Kret District, Nonthaburi 11120, Thailand",Abhishek Sahai,Thailand,Nonthaburi 11120,https://in.linkedin.com/in/abhisheksahai
455,ibis Styles Bangkok Ratchada,"212 Ratchadaphisek Rd, Khwaeng Huai Khwang, Khet Huai Khwang, Bangkok 10310, Thailand",No data available.,Thailand,Bangkok 10310,
456,Swissôtel Bangkok Ratchada,"204 Ratchadaphisek Rd, Huai Khwang, Khet Huai Khwang, Bangkok 10320, Thailand",,Thailand,Bangkok 10320,
457,Pullman Bangkok King Power,"8, 2 Rang Nam Alley, Khwaeng Thanon Phaya Thai, Khet Ratchathewi, Bangkok 10400, Thailand",Alexander Schoell,Thailand,Bangkok 10400,https://vn.linkedin.com/in/alexander-schoell-b315b125
458,Mercure Bangkok Makkasan,"1599 Kamphaeng Phet 7 Rd, Khwaeng Makkasan, Khet Ratchathewi, Bangkok 10400, Thailand",No data available.,Thailand,Bangkok 10400,
459,Grand Mercure Bangkok Atrium,"1880 New Petchaburi Rd, Bangkapi, Khet Huai Khwang, Bangkok 10310, Thailand",Orawan Vicharnarong,Thailand,Bangkok 10310,https://th.linkedin.com/in/orawan-vicharnarong-8550a9123
460,Novotel Bangkok Platinum Pratunam,"220 Phetchaburi Rd, Khwaeng Thanon Phetchaburi, Khet Ratchathewi, Bangkok 10400, Thailand","No information is provided about the General Manager's name in the given sources. 

- **Blank**",Thailand,Bangkok 10400,
461,Mövenpick BDMS Wellness Resort Bangkok,"2 Witthayu Rd, Lumphini, Pathum Wan, Bangkok 10330, Thailand",No data available.,Thailand,Bangkok 10330,
462,VIE Hotel Bangkok - MGallery,"117 39, 40 Phaya Thai Rd, Khwaeng Thanon Phetchaburi, Khet Ratchathewi, Bangkok 10400, Thailand",Nicolas Peth,Thailand,Bangkok 10400,https://th.linkedin.com/in/nicpeth
463,Mercure Bangkok Sukhumvit 11,"18 Soi Sukhumvit 11, Khwaeng Khlong Toei Nuea, Watthana, Bangkok 10110, Thailand",Boima Harris,Thailand,Bangkok 10110,https://th.linkedin.com/in/boima-harris-92192870
464,Mövenpick Hotel Sukhumvit 15 Bangkok,"47 Sukhumvit 15, Khwaeng Khlong Toei Nuea, Watthana, Bangkok 10110, Thailand",Jay Sudhakaran,Thailand,Bangkok 10110,https://th.linkedin.com/in/jay-sudhakaran-713a8519
465,Grand Mercure Bangkok Asoke Residence,"50, 5 Sukhumvit 19 Alley, Khwaeng Khlong Toei Nuea, Watthana, Bangkok 10110, Thailand",Jon Warmington,Thailand,Bangkok 10110,https://th.linkedin.com/in/jon-warmington-9ab53211
466,Novotel Bangkok Ploenchit Sukhumvit,"566 Phloen Chit Rd, Khwaeng Lumphini, Pathum Wan, Bangkok 10330, Thailand",,Thailand,Bangkok 10330,
467,Mercure Bangkok Siam,"927 Rama I Rd, Wangmai, Pathum Wan, Bangkok 10330, Thailand",Orawan Vicharnarong,Thailand,Bangkok 10330,https://th.linkedin.com/in/orawan-vicharnarong-8550a9123
468,ibis Bangkok Siam,"927 Rama I Rd, Wangmai, Pathum Wan, Bangkok 10330, Thailand","No information is available about the General Manager of ibis Bangkok Siam. 

- **Blank**",Thailand,Bangkok 10330,https://th.linkedin.com/in/raphael-hirsch-91357436
469,Novotel Bangkok on Siam Square,"392, 44 Siam Square Soi 6, Khwaeng Pathum Wan, Pathum Wan, Bangkok 10330, Thailand",Nunnicha Chaisripitak,Thailand,Bangkok 10330,https://th.linkedin.com/in/nunnicha-chaisripitak-31b7b9a0
470,Sofitel Bangkok Sukhumvit,"189 Sukhumvit Rd, Khwaeng Khlong Toei Nuea, Watthana, Bangkok 10110, Thailand",,Thailand,Bangkok 10110,
471,TRIBE Living Bangkok Sukhumvit 39,"122 Soi Sukhumvit 39, Khwaeng Khlong Tan Nuea, Watthana, Bangkok 10110, Thailand",Chef Natra,Thailand,Bangkok 10110,https://mv.linkedin.com/in/donald-hotbel-p-tampubolon-707040a6
472,Novotel Suites Bangkok Sukhumvit 39,"5/9 Soi Phromsri, Soi Sukhumvit 39, Klongton-nua, Watthana, Bangkok 10110, Thailand",No data available for the General Manager of Novotel Suites Bangkok Sukhumvit 39.,Thailand,Bangkok 10110,https://th.linkedin.com/in/penapa-ruangsangwatana-5b8a0420
473,Novotel Bangkok Sukhumvit 4,"27 Sukhumvit 4 Alley, Khwaeng Khlong Toei, Khet Khlong Toei, Bangkok 10110, Thailand",No data available.,Thailand,Bangkok 10110,
474,ibis Styles Bangkok Sukhumvit 4,"27 Sukhumvit 4 Alley, Khwaeng Khlong Toei, Khet Khlong Toei, Bangkok 10110, Thailand","No information is provided about the General Manager of ibis Styles Bangkok Sukhumvit 4 in the search results. Therefore, the response is:

Blank.",Thailand,Bangkok 10110,https://th.linkedin.com/in/boima-harris-92192870
475,ibis Bangkok Sukhumvit 4,"41 Sukhumvit Rd, Khwaeng Khlong Toei, Khet Khlong Toei, Bangkok 10110, Thailand",No data available for the General Manager of ibis Bangkok Sukhumvit 4.,Thailand,Bangkok 10110,https://th.linkedin.com/in/boima-harris-92192870
476,Novotel Living Bangkok Sukhumvit Legacy,"12-14 Sukhumvit 29 Alley Klong Toey Nua, Bangkok 10110, Thailand",Boima Harris,Thailand,Bangkok 10110,https://th.linkedin.com/in/boima-harris-92192870
477,Novotel Bangkok Sukhumvit 20,"19/9 Sukhumvit 20 Alley, Khwaeng Khlong Toei, Khlong Toei, Bangkok 10110, Thailand",Nikolay Stoyanov,Thailand,Bangkok 10110,https://bg.linkedin.com/in/nikolay-stoyanov-4301172
478,Mercure Bangkok Sukhumvit 24,"5, 1 Sukhumvit Rd, Khlong Tan, Khet Khlong Toei, Bangkok 10110, Thailand",Boima Harris,Thailand,Bangkok 10110,https://th.linkedin.com/in/boima-harris-92192870
479,Ibis Bangkok Sukhumvit 24,"5, 1 Sukhumvit 24 Road, Khwaeng Khlong Tan, Khet Khlong Toei, Bangkok 10110, Thailand",Nikolay Stoyanov,Thailand,Bangkok 10110,https://bg.linkedin.com/in/niksto
480,Homm Sukhumvit 34 Bangkok,"40 ซอย Soi Sukhumvit 34, Khlong Tan, Khlong Toei, Bangkok 10110, Thailand",No data available.,Thailand,Bangkok 10110,
481,Novotel Bangkok Suvarnabhumi Airport,"Suvarnabhumi Airport, 999, Nong Prue, Bang Phli District, Samut Prakan 10540, Thailand",Chris,Thailand,Samut Prakan 10540,https://www.linkedin.com/in/thechrisdo
482,SO/ Bangkok,"2 N Sathon Rd, Silom, Bang Rak, Bangkok 10500, Thailand",Blair Fowler,Thailand,Bangkok 10500,https://www.linkedin.com/in/blairfowler
483,ibis Styles Bangkok Silom,"289 Si Lom Rd, Silom, Bang Rak, Bangkok 10500, Thailand",,Thailand,Bangkok 10500,
484,Mercure Bangkok Surawong,"222 Surawong Rd, Si Phraya, Bang Rak, Bangkok 10500, Thailand",Patcharaporn Rattanasaenghirun,Thailand,Bangkok 10500,https://th.linkedin.com/in/patcharaporn-rattanasaenghirun-9aa826184
485,Banyan Tree Bangkok,"Located in: Thai Wah Plaza Co.,LTD, 21/100 S Sathon Rd, Thung Maha Mek, Sathon, Bangkok 10120, Thailand",Michaela Connor,Thailand,Bangkok 10120,https://th.linkedin.com/in/michaela-connor-64bb4211b
486,Pullman Bangkok Hotel G,"188 Si Lom Rd, Khwaeng Suriya Wong, Khet Bang Rak, Bangkok 10500, Thailand",Marie Bertrand,Thailand,Bangkok 10500,https://fr.linkedin.com/in/marieevbertrand
487,ibis Bangkok Sathorn,"Ngam Duphli Alley, Khwaeng Thung Maha Mek, Khet Sathon, Bangkok 10120, Thailand",Orawan Vicharnarong,Thailand,Bangkok 10120,https://th.linkedin.com/in/orawan-vicharnarong-8550a9123
488,ibis Styles Bangkok Sukhumvit Phra Khanong,"1122 Sukhumvit Rd, Khwaeng Phra Khanong, Khet Khlong Toei, Bangkok 10110, Thailand",,Thailand,Bangkok 10110,
489,ibis Bangkok Riverside,"27 Soi Charoen Nakhon 17, Khwaeng Bang Lamphu Lang, Khet Khlong San, Bangkok 10600, Thailand",Vinod Singh Negi,Thailand,Bangkok 10600,https://th.linkedin.com/in/vinod-singh-negi-1a475024
490,ibis Styles Bangkok Sukhumvit 50,"2026, 11 Sukhumvit 50 Aly, Khwaeng Phra Khanong, Khlong Toei, Bangkok 10260, Thailand",No data available for the General Manager of ibis Styles Bangkok Sukhumvit 50.,Thailand,Bangkok 10260,https://th.linkedin.com/in/kannika-mahapurksapong-1016943b
491,Novotel Bangkok Bangna,"333 Srinagarindra Rd, Khwaeng Nong Bon, Khet Prawet, Bangkok 10250, Thailand",,Thailand,Bangkok 10250,
492,NOVOTEL KOH SI CHANG,"333 Tha Thewawong, Ko Sichang District, Chon Buri 20120, Thailand",No data available.,Thailand,Chon Buri 20120,
493,Novotel Marina Sriracha,"339 Jerm Jom Phon Road, Amphoe Si Racha, Chon Buri 20110, Thailand",No information is available about the General Manager of Novotel Marina Sriracha in the provided sources.,Thailand,Chon Buri 20110,https://th.linkedin.com/in/vincent-olivier-445b7a31
494,Pullman Pattaya Hotel G,"445 Soi Saranchon, Muang Pattaya, Bang Lamung District, Chon Buri 20150, Thailand",Othmane Amrani,Thailand,Chon Buri 20150,https://sg.linkedin.com/in/othmane-amrani-485a2036
495,ibis Pattaya,"463, Nhongprue, 79, Pattaya City, Bang Lamung District, Chang Wat Chon Buri 20150, Thailand",No information is available about the General Manager of ibis Pattaya in the provided sources.,Thailand,Chang Wat Chon Buri 20150,https://th.linkedin.com/in/pablo-lopez-1981mcnchee
496,Mercure Pattaya Ocean Resort,"463, Nhongprue, 100 Pattaya Soi 2, Pattaya City, Bang Lamung District, Chang Wat Chon Buri 20150, Thailand",No data available.,Thailand,Chang Wat Chon Buri 20150,
497,Veranda Resort Pattaya - MGallery,"211 Moo 1, Muang Pattaya, Sattahip District, Chon Buri 20250, Thailand",Preeyaporn Thongkum,Thailand,Chon Buri 20250,https://th.linkedin.com/in/pitchayaporn-thongkum-aa8219175
498,Mövenpick Siam Na Jomtien Pattaya,"55, Na, Sukhumvit Rd, Tambon Na Chom Thian, Sattahip District, Chon Buri 20250, Thailand",Dmitry Chernyshev,Thailand,Chon Buri 20250,https://au.linkedin.com/in/dmitry-chernyshev
499,SO/ Sofitel Hua Hin,"115, Tambol Bangkao, Bang Kao, Hua Hin, Chang Wat Phetchaburi 76120, Thailand",No data available.,Thailand,Chang Wat Phetchaburi 76120,
500,Novotel Rayong Star Convention Centre,"109 Sukhumvit Rd, Tha Pradu, Mueang Rayong District, Rayong 21000, Thailand",Jirachot Chanjindachot,Thailand,Rayong 21000,
501,Novotel Rayong Rim Pae Resort,"4, 5 ถนน เพ-แกลง-กร่ำ, Chakphong, Klaeng District, Rayong 21190, Thailand",,Thailand,Rayong 21190,
502,Mercure Rayong Lomtalay Villas & Resort,"289, Kram, Klaeng District, Chang Wat Rayong 21190, Thailand",,Thailand,Chang Wat Rayong 21190,
503,Mövenpick Asara Resort & Spa Hua Hin,"Amphur, 53 Hua Hin 5 Alley, Hua Hin, Hua Hin District, Prachuap Khiri Khan 77110, Thailand",Orly,Thailand,Prachuap Khiri Khan 77110,https://th.linkedin.com/in/orly-carrasco-2a7b299
504,V Villas Hua Hin - MGallery,"63, 39 Phet Kasem Rd, Tambon Nong Kae, Hua Hin District, Prachuap Khiri Khan 77110, Thailand",,Thailand,Prachuap Khiri Khan 77110,
505,ibis Hua Hin,"Phet Kasem Rd, Hua Hin, Hua Hin District, Chang Wat Prachuap Khiri Khan 77110, Thailand",No information available.,Thailand,Chang Wat Prachuap Khiri Khan 77110,
506,Veranda High Resort Chiang Mai - MGallery,"192, Ban Pong, Mueang Chiang Mai District, Chiang Mai 50230, Thailand",No data available for the General Manager of Veranda High Resort Chiang Mai - MGallery.,Thailand,Chiang Mai 50230,https://mv.linkedin.com/in/christoph-leonhard-6944a6131
507,Novotel Chiangmai Nimman Journeyhub,"7, 77 หมู่ที่ 2 Huay Kaew Rd, Chang Phueak, Mueang Chiang Mai District, Chiang Mai 50300, Thailand",Sirisook Moore,Thailand,Chiang Mai 50300,https://th.linkedin.com/in/sirisook-moore-0a217590
508,ibis Chiang Mai Nimman Journeyhub,"7 17 Huay Kaew Rd, Tambon Chang Phueak, Mueang Chiang Mai District, Chiang Mai 50300, Thailand",No data available.,Thailand,Chiang Mai 50300,
509,ibis Styles Chiang Mai,"7, Kanklong, 9, Tambon Chang Phueak, Mueang Chiang Mai District, Chiang Mai 50300, Thailand",No data available.,Thailand,Chiang Mai 50300,
510,Mercure Koh Chang Hideaway,"111, 1, Koh Chang Tai, Ko Chang District, Trat 23170, Thailand",No data available.,Thailand,Trat 23170,
511,Garrya Tongsai Bay Samui,"84, Tambon Bo Put, Amphoe Ko Samui, Surat Thani 84320, Thailand",Manuel,Thailand,Surat Thani 84320,https://th.linkedin.com/in/manuel-fafian-64470346
512,ibis Samui Bophut,"Bophut Beach, Ko Samui District, Surat Thani 84320, Thailand",No information is available about the General Manager of ibis Samui Bophut in the provided sources.,Thailand,Surat Thani 84320,https://th.linkedin.com/in/somrudee-angsurat-4102046a
513,Mercure Samui Chaweng Tana,"17/135 หมู่ที่ 3 ถนน เลียบหาดเฉวง, Ko Samui District, Surat Thani 84320, Thailand",Peter Samui,Thailand,Surat Thani 84320,https://th.linkedin.com/in/peter-koh-samui-22ab2442
514,Banyan Tree Samui,"99, 9, Maret, Surat Thani 84310, Thailand",Remko Kroesen,Thailand,Surat Thani 84310,https://th.linkedin.com/in/remko-kroesen-3abba86
515,Pullman Khao Lak Resort,"46 109 Moo 2 Soi 46 Laem Son Bangmuang, Phang Nga, 82190, Thailand",Jean-Louis Ripoche.,Thailand,82190,https://www.linkedin.com/in/jean-louis-ripoche-7375a85
516,Grand Mercure Khao Lak Bangsak,"71 หมู่ 7 Bang Muang, Takua Pa District, Phang Nga 82190, Thailand",Lance Crampton,Thailand,Phang Nga 82190,https://th.linkedin.com/in/lance-crampton-a4864017
517,Banyan Tree Krabi,"279 Tambon Nongtalay Amphoe Muang Krabi 81180, Thailand","No specific name is provided in the sources for the General Manager of Banyan Tree Krabi. 

- **Blank**",Thailand,279 Tambon Nongtalay Amphoe Muang Krabi 81180,https://th.linkedin.com/in/haruethai-maneerat-92616555
518,Sofitel Krabi Phokeethra Golf & Spa Resort,"200 Moo 3 T.Nongtalay, Krabi, 81180, Thailand",Siripun Petchai,Thailand,81180,https://th.linkedin.com/in/siripun-chailai-ponamas-40190419a
519,ibis Styles Krabi Ao Nang,"725, Ao Nang, Krabi, 81180, Thailand","No specific name is provided in the search results for the General Manager of ibis Styles Krabi Ao Nang. 

- **Blank**",Thailand,81180,https://th.linkedin.com/in/%E0%B8%95%E0%B8%A3%E0%B8%B5%E0%B8%99%E0%B8%B8%E0%B8%A7%E0%B8%B1%E0%B8%92%E0%B8%99%E0%B9%8C-%E0%B8%AA%E0%B8%B5%E0%B8%AB%E0%B8%99%E0%B8%B2%E0%B8%97%E0%B8%97%E0%B8%B4%E0%B8%99%E0%B8%9E%E0%B8%87%E0%B8%A8%E0%B9%8C-532315148
520,Pullman Phuket Arcadia Naithon Beach,"22, Naithon Beach, 2, Tambon Sa Khu, Amphur, Phuket 83110, Thailand",Brett Wilson,Thailand,Phuket 83110,https://www.linkedin.com/in/bjwilson
521,Banyan Tree Phuket,"33 Cherngtalay 33/27 ถนน Thalang District, Phuket 83110, Thailand",Eddy See,Thailand,Phuket 83110,https://sg.linkedin.com/in/eddy-see-a41925128
522,Mövenpick Phuket Bangtao,"35 Cherngtalay, Tambon Choeng Thale, Thalang District, Phuket 83110, Thailand",Michael Wenk,Thailand,Phuket 83110,https://www.linkedin.com/in/michaelscottwenkga
523,Homm Suites Laguna,"หมู่ที่ 4 61 ถนน ศรีสุนทร Choeng Thale, Thalang District, Phuket 83110, Thailand","No information is provided about the general manager of Homewood Suites by Hilton Aliso Viejo - Laguna Beach in the search results. Therefore, the response is: **Blank**.",Thailand,Phuket 83110,https://www.linkedin.com/in/martha-marquez-87883234
524,Cassia Phuket,"64, Srisoonthorn Road, Tambon Choeng Thale, Thalang District, Phuket 83110, Thailand",Brett Wilson,Thailand,Phuket 83110,https://www.linkedin.com/in/bjwilson
525,Novotel Phuket Kamala Beach,"118, 16, Kamala, Kathu District, Phuket 83150, Thailand",Pataraseth Pokinbenjarasamee,Thailand,Phuket 83150,https://th.linkedin.com/in/pataraseth-yu-pokinbenjarasamee-849aa722
526,Andaman Beach Hotel Phuket - Handwritten Collection,"17/1-3 Soi Prabaramee 4, Pa Tong, Amphoe Kathu, Phuket 83150, Thailand",Brett Wilson,Thailand,Phuket 83150,https://www.linkedin.com/in/bjwilson
527,Novotel Phuket Resort,"282 Phrabaramee Rd, Tambon Patong, Kathu District, Phuket 83150, Thailand",Massimo Bernardi,Thailand,Phuket 83150,https://th.linkedin.com/in/massimo-bernardi-47516a9
528,Mövenpick Myth Hotel Patong Phuket,"27/9 200 Rat Uthit Song Roi Pi Rd, Kathu District, Phuket 83150, Thailand",Alberto J. Lugo-Vina,Thailand,Phuket 83150,https://vn.linkedin.com/in/alberto-j-lugo-vina-mba-65898721
529,ibis Phuket Patong,"10 Chalermphrakiat Road, Pa Tong, Amphoe Kathu, Phuket 83150, Thailand",No data available for the General Manager of ibis Phuket Patong.,Thailand,Phuket 83150,https://th.linkedin.com/in/apinya-phormmunee-923282176
530,Novotel Phuket Vintage Park Resort,"89 Rat U Thit 200 Pee Rd, Pa Tong, Phuket 83150, Thailand","Novotel Phuket Vintage Park Resort General Manager: **General Manager - Novotel Phuket Vintage Park Resort** is not specified in the provided sources. However, the role of General Manager is described in detail, but the name is not given. 

**Blank**",Thailand,Phuket 83150,
531,Grand Mercure Phuket Patong,"1 Soi Rat Uthit 200 Pi 2, Pa Tong, Kathu District, Phuket 83150, Thailand",No information is available on the current General Manager of Grand Mercure Phuket Patong.,Thailand,Phuket 83150,https://th.linkedin.com/in/sebastien-tronchet-0042249
532,Homm Bliss Southbeach Patong,"40 Thawewong Rd, Pa Tong, Kathu District, Phuket 83150, Thailand",No data available for the General Manager of Homm Bliss Southbeach Patong.,Thailand,Phuket 83150,https://th.linkedin.com/in/malida-iamchamnan-19aa6711b
533,Avista Hideaway Phuket Patong - MGallery,"39, 9 Muen-Ngern Rd, Tambon Patong, Amphur Kathu, Phuket 83150, Thailand",Manish Pratap,Thailand,Phuket 83150,https://th.linkedin.com/in/manishpratap
534,V Villas Phuket - MGallery,"Vichit, Moo 8 Ao, Soi Ruam Jai Ao Yon, Mueang Phuket District, Phuket 83000, Thailand",No data available for V Villas Phuket - MGallery General Manager.,Thailand,Phuket 83000,https://www.linkedin.com/in/mike-smith-gm
535,Pullman Phuket Panwa Beach Resort,"44, 5 Sakdidesh Road, Wichit, Amphoe Mueang Phuket, Phuket 83000, Thailand",,Thailand,Phuket 83000,
536,Pullman Phuket Karon Beach Resort,"333 Patak Rd, Tambon Karon, Muang, Phuket 83100, Thailand",Ajay Sampige,Thailand,Phuket 83100,
537,Avista Grande Phuket Karon - MGallery,"38, Luang Phor Chuan Rd, Tambon Karon, Amphur Muang, Phuket 83100, Thailand",Arun Vishnu,Thailand,Phuket 83100,https://th.linkedin.com/in/arun-vishnu-60959a6a
538,Novotel Phuket Kata Avista Resort & Spa,"4, 1 Soi Lam Sai, Karon, Mueang Phuket District, Phuket 83100, Thailand",Massimo Bernardi.,Thailand,Phuket 83100,https://th.linkedin.com/in/massimo-bernardi-47516a9
539,ibis Phuket Kata,"88, 8 Kata Rd, Amphur, Mueang Phuket District, Chang Wat Phuket 83100, Thailand",No data available.,Thailand,Chang Wat Phuket 83100,
540,Cassia Rama 9 Bangkok,"395, 397 Rama IX Rd, Bang Kapi, Huai Khwang, Bangkok 10310, Thailand",,Thailand,Bangkok 10310,
541,Mercure Chiang Mai,"183 Changpuak Rd, Chang Phueak, Mueang Chiang Mai District, Chiang Mai 50200, Thailand",Sirisook Moore,Thailand,Chiang Mai 50200,
542,Homm Chura Samui,"99/9 หมู่ที่ 2 3 ตำบล บ่อผุด Ko Samui District, Surat Thani 84320, Thailand",,Thailand,Surat Thani 84320,
543,Angsana Laguna Phuket,"274W+8CH, 10 Moo 4, Srisoonthorn road Cherngtalay, Choeng Thale, Thalang District, Phuket 83110, Thailand",No data available.,Thailand,Phuket 83110,
544,Novotel Phuket City Phokeethra,"40, 5 Chanajaroen Road, Tambon Talat Yai, Amphur Muang, Phuket 83000, Thailand","Igor Chinellato is the General Manager of Novotel Phuket Vintage Park, not Novotel Phuket City Phokeethra. Therefore, the response is blank.",Thailand,Phuket 83000,
545,ibis Styles Phuket City,"23 Thavornwogwong Road, Talat Yai, Mueang Phuket District, Phuket 83000, Thailand",No data available for the General Manager of ibis Styles Phuket City.,Thailand,Phuket 83000,
546,Mövenpick Resort Khao Yai,"Nakornratch, T Wangsai A, Pak Chong District, Nakhon Ratchasima 30130, Thailand",No information is provided about the General Manager of Mövenpick Resort Khao Yai in the given sources.,Thailand,Nakhon Ratchasima 30130,
547,Pullman Khon Kaen Raja Orchid,"9, 9 Prachasumran Road, Nai Mueang, Muang, Khon Kaen 40000, Thailand",Stanley Chan,Thailand,Khon Kaen 40000,
548,Novotel Bangkok Future Park Rangsit,"114 Phahonyothin Rd, Prachathipat, Thanyaburi District, Pathum Thani 12130, Thailand",No data available.,Thailand,Pathum Thani 12130,
549,ibis Bangkok IMPACT,"93 Popular Road, Banmai Subdistrict, NONTHABURI, 11120, Thailand",No specific name is provided in the search results for the General Manager of ibis Bangkok IMPACT.,Thailand,11120,
550,Novotel Bangkok Impact,"94 Popular Rd, Tambon Ban Mai, Pak Kret District, Nonthaburi 11120, Thailand",Abhishek Sahai,Thailand,Nonthaburi 11120,
551,ibis Styles Bangkok Ratchada,"212 Ratchadaphisek Rd, Khwaeng Huai Khwang, Khet Huai Khwang, Bangkok 10310, Thailand",No information is available about the general manager of ibis Styles Bangkok Ratchada in the provided sources.,Thailand,Bangkok 10310,
552,Swissôtel Bangkok Ratchada,"204 Ratchadaphisek Rd, Huai Khwang, Khet Huai Khwang, Bangkok 10320, Thailand",No data available.,Thailand,Bangkok 10320,
553,Pullman Bangkok King Power,"8, 2 Rang Nam Alley, Khwaeng Thanon Phaya Thai, Khet Ratchathewi, Bangkok 10400, Thailand",Luc Bollen,Thailand,Bangkok 10400,
554,Mercure Bangkok Makkasan,"1599 Kamphaeng Phet 7 Rd, Khwaeng Makkasan, Khet Ratchathewi, Bangkok 10400, Thailand",No data available.,Thailand,Bangkok 10400,
555,Grand Mercure Bangkok Atrium,"1880 New Petchaburi Rd, Bangkapi, Khet Huai Khwang, Bangkok 10310, Thailand",Orawan Vicharnarong,Thailand,Bangkok 10310,
556,Novotel Bangkok Platinum Pratunam,"220 Phetchaburi Rd, Khwaeng Thanon Phetchaburi, Khet Ratchathewi, Bangkok 10400, Thailand",,Thailand,Bangkok 10400,
557,Mövenpick BDMS Wellness Resort Bangkok,"2 Witthayu Rd, Lumphini, Pathum Wan, Bangkok 10330, Thailand",No data available.,Thailand,Bangkok 10330,
558,VIE Hotel Bangkok - MGallery,"117 39, 40 Phaya Thai Rd, Khwaeng Thanon Phetchaburi, Khet Ratchathewi, Bangkok 10400, Thailand",Nicolas Peth,Thailand,Bangkok 10400,
559,Mercure Bangkok Sukhumvit 11,"18 Soi Sukhumvit 11, Khwaeng Khlong Toei Nuea, Watthana, Bangkok 10110, Thailand",Nikolay Stoyanov,Thailand,Bangkok 10110,
560,Mövenpick Hotel Sukhumvit 15 Bangkok,"47 Sukhumvit 15, Khwaeng Khlong Toei Nuea, Watthana, Bangkok 10110, Thailand",Jay Sudhakaran,Thailand,Bangkok 10110,
561,Grand Mercure Bangkok Asoke Residence,"50, 5 Sukhumvit 19 Alley, Khwaeng Khlong Toei Nuea, Watthana, Bangkok 10110, Thailand",No information is available regarding the General Manager of the Grand Mercure Bangkok Asoke Residence.,Thailand,Bangkok 10110,
562,Novotel Bangkok Ploenchit Sukhumvit,"566 Phloen Chit Rd, Khwaeng Lumphini, Pathum Wan, Bangkok 10330, Thailand",No information is provided about the current General Manager of Novotel Bangkok Ploenchit Sukhumvit in the search results.,Thailand,Bangkok 10330,
563,Mercure Bangkok Siam,"927 Rama I Rd, Wangmai, Pathum Wan, Bangkok 10330, Thailand",Orawan Vicharnarong,Thailand,Bangkok 10330,
564,ibis Bangkok Siam,"927 Rama I Rd, Wangmai, Pathum Wan, Bangkok 10330, Thailand",Nikolay Stoyanov.,Thailand,Bangkok 10330,
565,Novotel Bangkok on Siam Square,"392, 44 Siam Square Soi 6, Khwaeng Pathum Wan, Pathum Wan, Bangkok 10330, Thailand",Nicolas Peth,Thailand,Bangkok 10330,
566,Sofitel Bangkok Sukhumvit,"189 Sukhumvit Rd, Khwaeng Khlong Toei Nuea, Watthana, Bangkok 10110, Thailand",Pana,Thailand,Bangkok 10110,
567,TRIBE Living Bangkok Sukhumvit 39,"122 Soi Sukhumvit 39, Khwaeng Khlong Tan Nuea, Watthana, Bangkok 10110, Thailand",Chef Nat ra,Thailand,Bangkok 10110,
568,Novotel Suites Bangkok Sukhumvit 39,"5/9 Soi Phromsri, Soi Sukhumvit 39, Klongton-nua, Watthana, Bangkok 10110, Thailand",Boima Harris,Thailand,Bangkok 10110,
569,Novotel Bangkok Sukhumvit 4,"27 Sukhumvit 4 Alley, Khwaeng Khlong Toei, Khet Khlong Toei, Bangkok 10110, Thailand",,Thailand,Bangkok 10110,
570,ibis Styles Bangkok Sukhumvit 4,"27 Sukhumvit 4 Alley, Khwaeng Khlong Toei, Khet Khlong Toei, Bangkok 10110, Thailand",Sammy Carolus,Thailand,Bangkok 10110,
571,ibis Bangkok Sukhumvit 4,"41 Sukhumvit Rd, Khwaeng Khlong Toei, Khet Khlong Toei, Bangkok 10110, Thailand",Vinod Singh Negi,Thailand,Bangkok 10110,
572,Novotel Living Bangkok Sukhumvit Legacy,"12-14 Sukhumvit 29 Alley Klong Toey Nua, Bangkok 10110, Thailand",Boima Harris,Thailand,Bangkok 10110,
573,Novotel Bangkok Sukhumvit 20,"19/9 Sukhumvit 20 Alley, Khwaeng Khlong Toei, Khlong Toei, Bangkok 10110, Thailand",Nikolay Stoyanov,Thailand,Bangkok 10110,
574,Mercure Bangkok Sukhumvit 24,"5, 1 Sukhumvit Rd, Khlong Tan, Khet Khlong Toei, Bangkok 10110, Thailand",Boima Harris,Thailand,Bangkok 10110,
575,Ibis Bangkok Sukhumvit 24,"5, 1 Sukhumvit 24 Road, Khwaeng Khlong Tan, Khet Khlong Toei, Bangkok 10110, Thailand",Nikolay Stoyanov.,Thailand,Bangkok 10110,
576,Homm Sukhumvit 34 Bangkok,"40 ซอย Soi Sukhumvit 34, Khlong Tan, Khlong Toei, Bangkok 10110, Thailand",No data available.,Thailand,Bangkok 10110,
577,Novotel Bangkok Suvarnabhumi Airport,"Suvarnabhumi Airport, 999, Nong Prue, Bang Phli District, Samut Prakan 10540, Thailand",No data available.,Thailand,Samut Prakan 10540,
578,SO/ Bangkok,"2 N Sathon Rd, Silom, Bang Rak, Bangkok 10500, Thailand",Blair Fowler,Thailand,Bangkok 10500,
579,ibis Styles Bangkok Silom,"289 Si Lom Rd, Silom, Bang Rak, Bangkok 10500, Thailand",Vinod Singh Negi,Thailand,Bangkok 10500,
580,Mercure Bangkok Surawong,"222 Surawong Rd, Si Phraya, Bang Rak, Bangkok 10500, Thailand",Benjamin Lehmann,Thailand,Bangkok 10500,
581,Banyan Tree Bangkok,"Located in: Thai Wah Plaza Co.,LTD, 21/100 S Sathon Rd, Thung Maha Mek, Sathon, Bangkok 10120, Thailand",No response available.,Thailand,Bangkok 10120,
582,Pullman Bangkok Hotel G,"188 Si Lom Rd, Khwaeng Suriya Wong, Khet Bang Rak, Bangkok 10500, Thailand",Marie Bertrand.,Thailand,Bangkok 10500,
583,ibis Bangkok Sathorn,"Ngam Duphli Alley, Khwaeng Thung Maha Mek, Khet Sathon, Bangkok 10120, Thailand",Vinod Singh Negi.,Thailand,Bangkok 10120,
584,ibis Styles Bangkok Sukhumvit Phra Khanong,"1122 Sukhumvit Rd, Khwaeng Phra Khanong, Khet Khlong Toei, Bangkok 10110, Thailand",No data available.,Thailand,Bangkok 10110,
585,ibis Bangkok Riverside,"27 Soi Charoen Nakhon 17, Khwaeng Bang Lamphu Lang, Khet Khlong San, Bangkok 10600, Thailand",Vinod Singh Negi,Thailand,Bangkok 10600,
586,ibis Styles Bangkok Sukhumvit 50,"2026, 11 Sukhumvit 50 Aly, Khwaeng Phra Khanong, Khlong Toei, Bangkok 10260, Thailand",No data available for the General Manager of ibis Styles Bangkok Sukhumvit 50.,Thailand,Bangkok 10260,
587,Novotel Bangkok Bangna,"333 Srinagarindra Rd, Khwaeng Nong Bon, Khet Prawet, Bangkok 10250, Thailand",No information is available about the General Manager of Novotel Bangkok Bangna in the provided sources.,Thailand,Bangkok 10250,
588,NOVOTEL KOH SI CHANG,"333 Tha Thewawong, Ko Sichang District, Chon Buri 20120, Thailand",No data available.,Thailand,Chon Buri 20120,
589,Novotel Marina Sriracha,"339 Jerm Jom Phon Road, Amphoe Si Racha, Chon Buri 20110, Thailand",No information available.,Thailand,Chon Buri 20110,
590,Pullman Pattaya Hotel G,"445 Soi Saranchon, Muang Pattaya, Bang Lamung District, Chon Buri 20150, Thailand",Othmane Amrani,Thailand,Chon Buri 20150,
591,ibis Pattaya,"463, Nhongprue, 79, Pattaya City, Bang Lamung District, Chang Wat Chon Buri 20150, Thailand","No information is provided about the General Manager of ibis Pattaya in the search results. 

- **Blank**",Thailand,Chang Wat Chon Buri 20150,
592,Mercure Pattaya Ocean Resort,"463, Nhongprue, 100 Pattaya Soi 2, Pattaya City, Bang Lamung District, Chang Wat Chon Buri 20150, Thailand",No data available.,Thailand,Chang Wat Chon Buri 20150,
593,Veranda Resort Pattaya - MGallery,"211 Moo 1, Muang Pattaya, Sattahip District, Chon Buri 20250, Thailand",Preeyaporn Thongkum,Thailand,Chon Buri 20250,
594,Mövenpick Siam Na Jomtien Pattaya,"55, Na, Sukhumvit Rd, Tambon Na Chom Thian, Sattahip District, Chon Buri 20250, Thailand",Dmitry Chernyshev,Thailand,Chon Buri 20250,
595,SO/ Sofitel Hua Hin,"115, Tambol Bangkao, Bang Kao, Hua Hin, Chang Wat Phetchaburi 76120, Thailand",No data available.,Thailand,Chang Wat Phetchaburi 76120,
596,Novotel Rayong Star Convention Centre,"109 Sukhumvit Rd, Tha Pradu, Mueang Rayong District, Rayong 21000, Thailand",Jirachot Chanjindachot,Thailand,Rayong 21000,
597,Novotel Rayong Rim Pae Resort,"4, 5 ถนน เพ-แกลง-กร่ำ, Chakphong, Klaeng District, Rayong 21190, Thailand",,Thailand,Rayong 21190,
598,Mercure Rayong Lomtalay Villas & Resort,"289, Kram, Klaeng District, Chang Wat Rayong 21190, Thailand",,Thailand,Chang Wat Rayong 21190,
599,Mövenpick Asara Resort & Spa Hua Hin,"Amphur, 53 Hua Hin 5 Alley, Hua Hin, Hua Hin District, Prachuap Khiri Khan 77110, Thailand","No specific information is available about the general manager of Mövenpick Asara Hua Hin Resort & Spa in the provided sources. 

- **Blank**",Thailand,Prachuap Khiri Khan 77110,
600,V Villas Hua Hin - MGallery,"63, 39 Phet Kasem Rd, Tambon Nong Kae, Hua Hin District, Prachuap Khiri Khan 77110, Thailand",No data available.,Thailand,Prachuap Khiri Khan 77110,
601,ibis Hua Hin,"Phet Kasem Rd, Hua Hin, Hua Hin District, Chang Wat Prachuap Khiri Khan 77110, Thailand","No information is available about the General Manager of ibis Hua Hin in the provided sources. 

- **Blank**",Thailand,Chang Wat Prachuap Khiri Khan 77110,
602,Veranda High Resort Chiang Mai - MGallery,"192, Ban Pong, Mueang Chiang Mai District, Chiang Mai 50230, Thailand",,Thailand,Chiang Mai 50230,
603,Novotel Chiangmai Nimman Journeyhub,"7, 77 หมู่ที่ 2 Huay Kaew Rd, Chang Phueak, Mueang Chiang Mai District, Chiang Mai 50300, Thailand",Sirisook Moore,Thailand,Chiang Mai 50300,
604,ibis Chiang Mai Nimman Journeyhub,"7 17 Huay Kaew Rd, Tambon Chang Phueak, Mueang Chiang Mai District, Chiang Mai 50300, Thailand",No data available.,Thailand,Chiang Mai 50300,
605,ibis Styles Chiang Mai,"7, Kanklong, 9, Tambon Chang Phueak, Mueang Chiang Mai District, Chiang Mai 50300, Thailand",Sirisook Moore,Thailand,Chiang Mai 50300,
606,Mercure Koh Chang Hideaway,"111, 1, Koh Chang Tai, Ko Chang District, Trat 23170, Thailand",No data available.,Thailand,Trat 23170,
607,Garrya Tongsai Bay Samui,"84, Tambon Bo Put, Amphoe Ko Samui, Surat Thani 84320, Thailand",Manuel,Thailand,Surat Thani 84320,
608,ibis Samui Bophut,"Bophut Beach, Ko Samui District, Surat Thani 84320, Thailand",No data available.,Thailand,Surat Thani 84320,
609,Mercure Samui Chaweng Tana,"17/135 หมู่ที่ 3 ถนน เลียบหาดเฉวง, Ko Samui District, Surat Thani 84320, Thailand",Adams Nitah,Thailand,Surat Thani 84320,
610,Banyan Tree Samui,"99, 9, Maret, Surat Thani 84310, Thailand",Remko Kroesen,Thailand,Surat Thani 84310,
611,Pullman Khao Lak Resort,"46 109 Moo 2 Soi 46 Laem Son Bangmuang, Phang Nga, 82190, Thailand",Jean-Louis Ripoche,Thailand,82190,
612,Grand Mercure Khao Lak Bangsak,"71 หมู่ 7 Bang Muang, Takua Pa District, Phang Nga 82190, Thailand",Lance Crampton,Thailand,Phang Nga 82190,
613,Banyan Tree Krabi,"279 Tambon Nongtalay Amphoe Muang Krabi 81180, Thailand",Manabu Kusu,Thailand,279 Tambon Nongtalay Amphoe Muang Krabi 81180,
614,Sofitel Krabi Phokeethra Golf & Spa Resort,"200 Moo 3 T.Nongtalay, Krabi, 81180, Thailand",Siripun Petchai,Thailand,81180,
615,ibis Styles Krabi Ao Nang,"725, Ao Nang, Krabi, 81180, Thailand","No specific information about the General Manager's name is provided in the search results. 

- **Blank**",Thailand,81180,
616,Pullman Phuket Arcadia Naithon Beach,"22, Naithon Beach, 2, Tambon Sa Khu, Amphur, Phuket 83110, Thailand",Brett Wilson,Thailand,Phuket 83110,
617,Banyan Tree Phuket,"33 Cherngtalay 33/27 ถนน Thalang District, Phuket 83110, Thailand",No data available.,Thailand,Phuket 83110,
618,Mövenpick Phuket Bangtao,"35 Cherngtalay, Tambon Choeng Thale, Thalang District, Phuket 83110, Thailand",Michael Wenk,Thailand,Phuket 83110,
619,Homm Suites Laguna,"หมู่ที่ 4 61 ถนน ศรีสุนทร Choeng Thale, Thalang District, Phuket 83110, Thailand",No information is provided about the general manager of Homewood Suites by Hilton Aliso Viejo - Laguna Beach in the search results.,Thailand,Phuket 83110,
620,Cassia Phuket,"64, Srisoonthorn Road, Tambon Choeng Thale, Thalang District, Phuket 83110, Thailand",Brett Wilson,Thailand,Phuket 83110,
621,Novotel Phuket Kamala Beach,"118, 16, Kamala, Kathu District, Phuket 83150, Thailand",Pataraseth Pokinbenjarasamee,Thailand,Phuket 83150,
622,Andaman Beach Hotel Phuket - Handwritten Collection,"17/1-3 Soi Prabaramee 4, Pa Tong, Amphoe Kathu, Phuket 83150, Thailand",Yap Jtwen,Thailand,Phuket 83150,
623,Novotel Phuket Resort,"282 Phrabaramee Rd, Tambon Patong, Kathu District, Phuket 83150, Thailand",Massimo Bernardi,Thailand,Phuket 83150,
624,Mövenpick Myth Hotel Patong Phuket,"27/9 200 Rat Uthit Song Roi Pi Rd, Kathu District, Phuket 83150, Thailand",Alberto J. Lugo-Vina,Thailand,Phuket 83150,
625,ibis Phuket Patong,"10 Chalermphrakiat Road, Pa Tong, Amphoe Kathu, Phuket 83150, Thailand",No data available.,Thailand,Phuket 83150,
626,Novotel Phuket Vintage Park Resort,"89 Rat U Thit 200 Pee Rd, Pa Tong, Phuket 83150, Thailand",Yanis,Thailand,Phuket 83150,
627,Grand Mercure Phuket Patong,"1 Soi Rat Uthit 200 Pi 2, Pa Tong, Kathu District, Phuket 83150, Thailand",No information is available on the current General Manager of Grand Mercure Phuket Patong.,Thailand,Phuket 83150,
628,Homm Bliss Southbeach Patong,"40 Thawewong Rd, Pa Tong, Kathu District, Phuket 83150, Thailand",No data available for the General Manager of Homm Bliss Southbeach Patong.,Thailand,Phuket 83150,
629,Avista Hideaway Phuket Patong - MGallery,"39, 9 Muen-Ngern Rd, Tambon Patong, Amphur Kathu, Phuket 83150, Thailand",Manish Pratap,Thailand,Phuket 83150,
630,V Villas Phuket - MGallery,"Vichit, Moo 8 Ao, Soi Ruam Jai Ao Yon, Mueang Phuket District, Phuket 83000, Thailand",No data available.,Thailand,Phuket 83000,
631,Pullman Phuket Panwa Beach Resort,"44, 5 Sakdidesh Road, Wichit, Amphoe Mueang Phuket, Phuket 83000, Thailand",General Manager at Pullman Phuket Panwa Beach Resort: General Manager at Pullman Phuket Panwa Beach Resort: **No updated data available**.,Thailand,Phuket 83000,
632,Pullman Phuket Karon Beach Resort,"333 Patak Rd, Tambon Karon, Muang, Phuket 83100, Thailand",Ajay Sampige,Thailand,Phuket 83100,
633,Avista Grande Phuket Karon - MGallery,"38, Luang Phor Chuan Rd, Tambon Karon, Amphur Muang, Phuket 83100, Thailand",Arun Vishnu,Thailand,Phuket 83100,
634,Novotel Phuket Kata Avista Resort & Spa,"4, 1 Soi Lam Sai, Karon, Mueang Phuket District, Phuket 83100, Thailand",Massimo Bernardi,Thailand,Phuket 83100,
635,ibis Phuket Kata,"88, 8 Kata Rd, Amphur, Mueang Phuket District, Chang Wat Phuket 83100, Thailand",Mesut Bey,Thailand,Chang Wat Phuket 83100,
636,Cassia Rama 9 Bangkok,"395, 397 Rama IX Rd, Bang Kapi, Huai Khwang, Bangkok 10310, Thailand",No data available.,Thailand,Bangkok 10310,
637,Mercure Chiang Mai,"183 Changpuak Rd, Chang Phueak, Mueang Chiang Mai District, Chiang Mai 50200, Thailand",Sirisook Moore,Thailand,Chiang Mai 50200,
638,Homm Chura Samui,"99/9 หมู่ที่ 2 3 ตำบล บ่อผุด Ko Samui District, Surat Thani 84320, Thailand",No data available.,Thailand,Surat Thani 84320,
639,Angsana Laguna Phuket,"274W+8CH, 10 Moo 4, Srisoonthorn road Cherngtalay, Choeng Thale, Thalang District, Phuket 83110, Thailand",,Thailand,Phuket 83110,
640,Novotel Phuket City Phokeethra,"40, 5 Chanajaroen Road, Tambon Talat Yai, Amphur Muang, Phuket 83000, Thailand",,Thailand,Phuket 83000,
641,ibis Styles Phuket City,"23 Thavornwogwong Road, Talat Yai, Mueang Phuket District, Phuket 83000, Thailand",No information available.,Thailand,Phuket 83000,
